{
  "type": "FeatureCollection",
  "features": [
    {
      "type": "Feature",
      "id": "building-101",
      "properties": {
        "buildingId": "building-101",
        "height": 24
      },
      "geometry": {
        "type": "Polygon",
        "coordinates": [
          [
            [
              177.50619999999998,
              64.73105
            ],
            [
              177.50779999999997,
              64.73105
            ],
            [
              177.50779999999997,
              64.73174999999999
            ],
            [
              177.50619999999998,
              64.73174999999999
            ],
            [
              177.50619999999998,
              64.73105
            ]
          ]
        ]
      }
    },
    {
      "type": "Feature",
      "id": "building-102",
      "properties": {
        "buildingId": "building-102",
        "height": 28
      },
      "geometry": {
        "type": "Polygon",
        "coordinates": [
          [
            [
              177.5102,
              64.73245
            ],
            [
              177.5118,
              64.73245
            ],
            [
              177.5118,
              64.73315
            ],
            [
              177.5102,
              64.73315
            ],
            [
              177.5102,
              64.73245
            ]
          ]
        ]
      }
    },
    {
      "type": "Feature",
      "id": "building-103",
      "properties": {
        "buildingId": "building-103",
        "height": 32
      },
      "geometry": {
        "type": "Polygon",
        "coordinates": [
          [
            [
              177.5142,
              64.73385
            ],
            [
              177.51579999999998,
              64.73385
            ],
            [
              177.51579999999998,
              64.73455
            ],
            [
              177.5142,
              64.73455
            ],
            [
              177.5142,
              64.73385
            ]
          ]
        ]
      }
    },
    {
      "type": "Feature",
      "id": "building-104",
      "properties": {
        "buildingId": "building-104",
        "height": 29
      },
      "geometry": {
        "type": "Polygon",
        "coordinates": [
          [
            [
              177.51819999999998,
              64.73535
            ],
            [
              177.51979999999998,
              64.73535
            ],
            [
              177.51979999999998,
              64.73604999999999
            ],
            [
              177.51819999999998,
              64.73604999999999
            ],
            [
              177.51819999999998,
              64.73535
            ]
          ]
        ]
      }
    },
    {
      "type": "Feature",
      "id": "building-105",
      "properties": {
        "buildingId": "building-105",
        "height": 35
      },
      "geometry": {
        "type": "Polygon",
        "coordinates": [
          [
            [
              177.5222,
              64.73685
            ],
            [
              177.5238,
              64.73685
            ],
            [
              177.5238,
              64.73755
            ],
            [
              177.5222,
              64.73755
            ],
            [
              177.5222,
              64.73685
            ]
          ]
        ]
      }
    },
    {
      "type": "Feature",
      "id": "building-106",
      "properties": {
        "buildingId": "building-106",
        "height": 26
      },
      "geometry": {
        "type": "Polygon",
        "coordinates": [
          [
            [
              177.5262,
              64.73835
            ],
            [
              177.52779999999998,
              64.73835
            ],
            [
              177.52779999999998,
              64.73904999999999
            ],
            [
              177.5262,
              64.73904999999999
            ],
            [
              177.5262,
              64.73835
            ]
          ]
        ]
      }
    },
    {
      "type": "Feature",
      "id": "building-107",
      "properties": {
        "buildingId": "building-107",
        "height": 31
      },
      "geometry": {
        "type": "Polygon",
        "coordinates": [
          [
            [
              177.53019999999998,
              64.73985
            ],
            [
              177.53179999999998,
              64.73985
            ],
            [
              177.53179999999998,
              64.74055
            ],
            [
              177.53019999999998,
              64.74055
            ],
            [
              177.53019999999998,
              64.73985
            ]
          ]
        ]
      }
    },
    {
      "type": "Feature",
      "id": "building-108",
      "properties": {
        "buildingId": "building-108",
        "height": 27
      },
      "geometry": {
        "type": "Polygon",
        "coordinates": [
          [
            [
              177.5342,
              64.74135
            ],
            [
              177.5358,
              64.74135
            ],
            [
              177.5358,
              64.74204999999999
            ],
            [
              177.5342,
              64.74204999999999
            ],
            [
              177.5342,
              64.74135
            ]
          ]
        ]
      }
    }
  ]
}