{
  "type": "FeatureCollection",
  "features": [
    {
      "type": "Feature",
      "id": "building-001",
      "properties": {
        "buildingId": "building-001",
        "height": 32
      },
      "geometry": {
        "type": "Polygon",
        "coordinates": [
          [
            [
              33.0686,
              68.96894999999999
            ],
            [
              33.0702,
              68.96894999999999
            ],
            [
              33.0702,
              68.96964999999999
            ],
            [
              33.0686,
              68.96964999999999
            ],
            [
              33.0686,
              68.96894999999999
            ]
          ]
        ]
      }
    },
    {
      "type": "Feature",
      "id": "building-002",
      "properties": {
        "buildingId": "building-002",
        "height": 38
      },
      "geometry": {
        "type": "Polygon",
        "coordinates": [
          [
            [
              33.0709,
              68.97025
            ],
            [
              33.0725,
              68.97025
            ],
            [
              33.0725,
              68.97094999999999
            ],
            [
              33.0709,
              68.97094999999999
            ],
            [
              33.0709,
              68.97025
            ]
          ]
        ]
      }
    },
    {
      "type": "Feature",
      "id": "building-003",
      "properties": {
        "buildingId": "building-003",
        "height": 48
      },
      "geometry": {
        "type": "Polygon",
        "coordinates": [
          [
            [
              33.07320000000001,
              68.97144999999999
            ],
            [
              33.0748,
              68.97144999999999
            ],
            [
              33.0748,
              68.97214999999998
            ],
            [
              33.07320000000001,
              68.97214999999998
            ],
            [
              33.07320000000001,
              68.97144999999999
            ]
          ]
        ]
      }
    },
    {
      "type": "Feature",
      "id": "building-004",
      "properties": {
        "buildingId": "building-004",
        "height": 36
      },
      "geometry": {
        "type": "Polygon",
        "coordinates": [
          [
            [
              33.0756,
              68.97265
            ],
            [
              33.0772,
              68.97265
            ],
            [
              33.0772,
              68.97335
            ],
            [
              33.0756,
              68.97335
            ],
            [
              33.0756,
              68.97265
            ]
          ]
        ]
      }
    },
    {
      "type": "Feature",
      "id": "building-005",
      "properties": {
        "buildingId": "building-005",
        "height": 52
      },
      "geometry": {
        "type": "Polygon",
        "coordinates": [
          [
            [
              33.078,
              68.97385
            ],
            [
              33.0796,
              68.97385
            ],
            [
              33.0796,
              68.97455
            ],
            [
              33.078,
              68.97455
            ],
            [
              33.078,
              68.97385
            ]
          ]
        ]
      }
    },
    {
      "type": "Feature",
      "id": "building-006",
      "properties": {
        "buildingId": "building-006",
        "height": 42
      },
      "geometry": {
        "type": "Polygon",
        "coordinates": [
          [
            [
              33.080400000000004,
              68.97505
            ],
            [
              33.082,
              68.97505
            ],
            [
              33.082,
              68.97574999999999
            ],
            [
              33.080400000000004,
              68.97574999999999
            ],
            [
              33.080400000000004,
              68.97505
            ]
          ]
        ]
      }
    },
    {
      "type": "Feature",
      "id": "building-007",
      "properties": {
        "buildingId": "building-007",
        "height": 35
      },
      "geometry": {
        "type": "Polygon",
        "coordinates": [
          [
            [
              33.082800000000006,
              68.97625
            ],
            [
              33.0844,
              68.97625
            ],
            [
              33.0844,
              68.97694999999999
            ],
            [
              33.082800000000006,
              68.97694999999999
            ],
            [
              33.082800000000006,
              68.97625
            ]
          ]
        ]
      }
    },
    {
      "type": "Feature",
      "id": "building-008",
      "properties": {
        "buildingId": "building-008",
        "height": 46
      },
      "geometry": {
        "type": "Polygon",
        "coordinates": [
          [
            [
              33.08520000000001,
              68.97744999999999
            ],
            [
              33.086800000000004,
              68.97744999999999
            ],
            [
              33.086800000000004,
              68.97814999999999
            ],
            [
              33.08520000000001,
              68.97814999999999
            ],
            [
              33.08520000000001,
              68.97744999999999
            ]
          ]
        ]
      }
    }
  ]
}