{
  "type": "FeatureCollection",
  "features": [
    {
      "type": "Feature",
      "id": "murmansk",
      "properties": {
        "regionId": "murmansk",
        "name": "Мурманская область",
        "source": "mock boundary for prototype"
      },
      "geometry": {
        "type": "Polygon",
        "coordinates": [
          [
            [
              28,
              66.0
            ],
            [
              41,
              66.0
            ],
            [
              41,
              70.7
            ],
            [
              28,
              70.7
            ],
            [
              28,
              66.0
            ]
          ]
        ]
      }
    },
    {
      "type": "Feature",
      "id": "nenets",
      "properties": {
        "regionId": "nenets",
        "name": "Ненецкий автономный округ",
        "source": "mock boundary for prototype"
      },
      "geometry": {
        "type": "Polygon",
        "coordinates": [
          [
            [
              43,
              66.0
            ],
            [
              66,
              66.0
            ],
            [
              66,
              70.7
            ],
            [
              43,
              70.7
            ],
            [
              43,
              66.0
            ]
          ]
        ]
      }
    },
    {
      "type": "Feature",
      "id": "yakutia",
      "properties": {
        "regionId": "yakutia",
        "name": "Республика Саха (Якутия)",
        "source": "mock boundary for prototype"
      },
      "geometry": {
        "type": "Polygon",
        "coordinates": [
          [
            [
              105,
              61.5
            ],
            [
              160,
              61.5
            ],
            [
              160,
              76.5
            ],
            [
              105,
              76.5
            ],
            [
              105,
              61.5
            ]
          ]
        ]
      }
    },
    {
      "type": "Feature",
      "id": "chukotka",
      "properties": {
        "regionId": "chukotka",
        "name": "Чукотский автономный округ",
        "source": "mock boundary for prototype"
      },
      "geometry": {
        "type": "Polygon",
        "coordinates": [
          [
            [
              160,
              62.0
            ],
            [
              179.7,
              62.0
            ],
            [
              179.7,
              72.5
            ],
            [
              160,
              72.5
            ],
            [
              160,
              62.0
            ]
          ]
        ]
      }
    }
  ]
}