{"type":"FeatureCollection","properties":{"cityId":"tiksi","cityName":"Тикси","source":"OpenStreetMap via Overpass API","osmBaseTimestamp":"2026-08-31T14:46:06Z","generatedAt":"2026-08-31T14:48:11.590Z","attribution":"© OpenStreetMap contributors","license":"ODbL","layer":"public-roads"},"features":[{"type":"Feature","id":"osm-road-119180250","properties":{"roadId":"osm-road-119180250","osmId":119180250,"highway":"residential","name":"Морская улица","surface":null,"lanes":null,"maxspeed":null,"source":"OpenStreetMap"},"geometry":{"type":"LineString","coordinates":[[128.8470125,71.6328119],[128.848654,71.6329742],[128.8497376,71.6331331],[128.8514435,71.6337348],[128.8529026,71.6343433],[128.8575804,71.6359963],[128.863094,71.638092],[128.8648224,71.6387205],[128.8661206,71.6392173],[128.8670862,71.6395856],[128.8677406,71.6397479],[128.8689047,71.6400435],[128.8699713,71.6402386],[128.8713509,71.6405386],[128.8718069,71.6406333]]}},{"type":"Feature","id":"osm-road-119180251","properties":{"roadId":"osm-road-119180251","osmId":119180251,"highway":"residential","name":null,"surface":null,"lanes":null,"maxspeed":null,"source":"OpenStreetMap"},"geometry":{"type":"LineString","coordinates":[[128.854984,71.6920959],[128.8539632,71.6920752],[128.8504978,71.6920213],[128.8489759,71.6919196],[128.8460791,71.6918556],[128.8435884,71.6917752],[128.8435999,71.6915257],[128.8440391,71.690262],[128.8485101,71.6903616],[128.8511431,71.6904535],[128.8517145,71.6903853],[128.8526559,71.6900895],[128.8531264,71.6900733],[128.8554266,71.6902168],[128.855719,71.6902459]]}},{"type":"Feature","id":"osm-road-119180252","properties":{"roadId":"osm-road-119180252","osmId":119180252,"highway":"residential","name":null,"surface":null,"lanes":null,"maxspeed":null,"source":"OpenStreetMap"},"geometry":{"type":"LineString","coordinates":[[128.8697775,71.6933289],[128.873266,71.6935709],[128.8743523,71.693587],[128.8751006,71.6935676],[128.8757556,71.6935472],[128.8761516,71.6935447],[128.8777292,71.6935002],[128.8787297,71.6935735],[128.8811715,71.6938141],[128.8840254,71.6941646]]}},{"type":"Feature","id":"osm-road-119180253","properties":{"roadId":"osm-road-119180253","osmId":119180253,"highway":"unclassified","name":null,"surface":null,"lanes":null,"maxspeed":null,"source":"OpenStreetMap"},"geometry":{"type":"LineString","coordinates":[[128.8808834,71.6419816],[128.8810658,71.6417687],[128.8806474,71.6416335],[128.8802612,71.6413801],[128.8803792,71.6411469],[128.8809585,71.640488],[128.8810122,71.6403055],[128.8808405,71.6402007],[128.8806581,71.6400622],[128.8800788,71.6397107],[128.879484,71.6393365],[128.8789353,71.6390237],[128.8784477,71.6385311],[128.878319,71.6380918],[128.8783941,71.6376389],[128.8783237,71.6372527],[128.8778517,71.6364382],[128.8767743,71.635496],[128.8763988,71.6351816],[128.874596,71.6340324],[128.8744829,71.6338117],[128.874124,71.6328559],[128.8738453,71.6325482],[128.8736844,71.6322946],[128.8732874,71.6321222],[128.8721824,71.6319194],[128.8688993,71.6310606],[128.8655198,71.630168],[128.8647258,71.6299685],[128.8630307,71.6297555],[128.8618505,71.6295425],[128.8609922,71.6292889],[128.8588783,71.6285181],[128.8582456,71.6283488],[128.8535356,71.627287],[128.8529992,71.6272058],[128.8524302,71.6271789],[128.8520654,71.627206],[128.8515186,71.6272667],[128.8510144,71.627402],[128.8504887,71.6276116],[128.8502097,71.6278315],[128.8498664,71.6282778],[128.849512,71.6287615],[128.8491902,71.6290895],[128.8487181,71.6294073],[128.8477834,71.6297865],[128.8472899,71.6300705],[128.8474735,71.6313141],[128.8473908,71.6315197],[128.8471413,71.6322034],[128.8470125,71.6328119],[128.8465083,71.633772],[128.8462615,71.6345292],[128.8458002,71.6359151],[128.8454568,71.636679],[128.8453495,71.6371421],[128.8451671,71.6375916]]}},{"type":"Feature","id":"osm-road-119180254","properties":{"roadId":"osm-road-119180254","osmId":119180254,"highway":"tertiary","name":null,"surface":null,"lanes":null,"maxspeed":null,"source":"OpenStreetMap"},"geometry":{"type":"LineString","coordinates":[[128.8466371,71.6389173],[128.844672,71.639228],[128.8438005,71.6393915],[128.842825,71.6397089],[128.8420381,71.6399952],[128.8404357,71.6405522],[128.8391054,71.6412111],[128.8384294,71.6416301],[128.8380754,71.6420796],[128.837496,71.6429581],[128.8370561,71.6438434],[128.836391,71.6453671],[128.8359189,71.6464279],[128.8357687,71.6469617],[128.8358974,71.647286],[128.8361442,71.6475123],[128.837024,71.6478468],[128.8392234,71.6489074],[128.8404894,71.649583],[128.8418627,71.6502923],[128.8439655,71.6513123],[128.8453415,71.6517],[128.8469481,71.6520486],[128.8494614,71.6524835],[128.8510895,71.6527916],[128.8522267,71.6530482],[128.8530636,71.6534602],[128.8539004,71.6539398],[128.8549518,71.6546827],[128.8561749,71.6554458],[128.8569259,71.6561887],[128.8585782,71.657546],[128.8588555,71.6577357],[128.8598871,71.6587615],[128.860445,71.6594029],[128.8605952,71.6598755],[128.860445,71.6608748],[128.8604879,71.6620225],[128.8607239,71.6642569],[128.8610324,71.6650595],[128.8617431,71.6651951],[128.8625532,71.6656694],[128.8650719,71.6666524],[128.8659563,71.6670936],[128.8703397,71.669018],[128.8723969,71.6701524],[128.8733089,71.6708238],[128.8739419,71.6715627],[128.8747787,71.6728548],[128.8749719,71.6737792],[128.8745534,71.6748418],[128.8740492,71.6759785],[128.8734698,71.6768892],[128.8731694,71.6773648],[128.8728797,71.6779348],[128.8725088,71.6784554],[128.8719678,71.6791388],[128.8710987,71.6801708],[128.8707232,71.6808351],[128.8707876,71.6811386],[128.8712275,71.6816579],[128.8720949,71.6826802],[128.8727859,71.683274],[128.8730675,71.6834821],[128.8733679,71.6836625],[128.8742085,71.6841233],[128.8760475,71.6851671],[128.8784265,71.6865973],[128.8789614,71.6869721]]}},{"type":"Feature","id":"osm-road-119180255","properties":{"roadId":"osm-road-119180255","osmId":119180255,"highway":"residential","name":null,"surface":null,"lanes":null,"maxspeed":null,"source":"OpenStreetMap"},"geometry":{"type":"LineString","coordinates":[[128.8705285,71.6907406],[128.8711064,71.6904034],[128.8720805,71.6900505],[128.8732225,71.6896363],[128.8748266,71.6891492],[128.8761516,71.6886724],[128.8772448,71.6881957],[128.8780175,71.6877277],[128.8789614,71.6869721]]}},{"type":"Feature","id":"osm-road-119180256","properties":{"roadId":"osm-road-119180256","osmId":119180256,"highway":"tertiary","name":null,"surface":null,"lanes":null,"maxspeed":null,"source":"OpenStreetMap"},"geometry":{"type":"LineString","coordinates":[[128.6234236,71.6419512],[128.6252904,71.642458],[128.6264598,71.6426743],[128.6272216,71.6427419],[128.6283481,71.6427452],[128.6297643,71.6427148],[128.6310196,71.6426878],[128.6315882,71.6426844],[128.6337662,71.6428939],[128.6342919,71.6429142],[128.6358717,71.6429168],[128.6387449,71.6429013],[128.6398816,71.6428973],[128.6407212,71.6428762],[128.6419415,71.6427587],[128.6499667,71.6418565],[128.6502993,71.641843],[128.6507177,71.6418701],[128.6599874,71.6440427],[128.6822712,71.6491642],[128.6832368,71.6493364],[128.6843848,71.6494986],[128.6873245,71.6498329],[128.6907899,71.6502349],[128.6918306,71.6504308],[128.6975706,71.6517176],[128.7157774,71.655824],[128.7187815,71.6565297],[128.7206912,71.6570024],[128.7213671,71.6571071],[128.723706,71.6573502],[128.7271124,71.6577081],[128.7274289,71.6577216],[128.7332896,71.658288],[128.7417412,71.659143],[128.7432539,71.659332],[128.745228,71.6595346],[128.7474516,71.6598309],[128.7539399,71.6609254],[128.7717497,71.6639026],[128.7723935,71.6639903],[128.7730586,71.6640106],[128.7750757,71.66396],[128.7811589,71.6638317],[128.7822318,71.6637608],[128.7829399,71.6636764],[128.7839162,71.6635279],[128.7854934,71.663241],[128.786062,71.6631803],[128.7919199,71.6630621],[128.7964582,71.6630183],[128.7975633,71.6630453],[128.7989581,71.6631431],[128.7997198,71.6631364],[128.8002992,71.6631263],[128.8018763,71.6629609],[128.8033998,71.6627381],[128.8044083,71.6626233],[128.8052559,71.6626368],[128.8063073,71.6627651],[128.8072836,71.6629474],[128.8094938,71.6634165],[128.8102662,71.6636562],[128.811425,71.6639667],[128.8120901,71.664068],[128.8129377,71.6640882],[128.8169396,71.6640578],[128.8206625,71.663933],[128.8215315,71.6638621],[128.8222504,71.6637439],[128.8253724,71.6631803],[128.8274753,71.6628461],[128.8286233,71.6627145],[128.8292456,71.6626942],[128.830179,71.6627685],[128.8313162,71.662944],[128.8337731,71.6635077],[128.8351142,71.6637338],[128.8359001,71.6638411],[128.836745,71.6638992],[128.8408971,71.6639397],[128.8453495,71.6641388],[128.8483965,71.6642806],[128.8512209,71.6644216],[128.8546729,71.6646654],[128.8610324,71.6650595]]}},{"type":"Feature","id":"osm-road-140362255","properties":{"roadId":"osm-road-140362255","osmId":140362255,"highway":"unclassified","name":null,"surface":null,"lanes":null,"maxspeed":null,"source":"OpenStreetMap"},"geometry":{"type":"LineString","coordinates":[[128.8743136,71.7086979],[128.8732177,71.7092312],[128.8725982,71.709584],[128.8725884,71.7098002],[128.8727724,71.7105915],[128.8730836,71.7111234],[128.873384,71.7116655],[128.8736614,71.7122714],[128.8756156,71.7159474],[128.8772249,71.7191112],[128.8813019,71.7267894],[128.881892,71.7282964],[128.8820529,71.7290028],[128.8824177,71.7308157],[128.8827808,71.7324131],[128.8830598,71.7343602],[128.8830381,71.7346923]]}},{"type":"Feature","id":"osm-road-140362256","properties":{"roadId":"osm-road-140362256","osmId":140362256,"highway":"unclassified","name":null,"surface":null,"lanes":null,"maxspeed":null,"source":"OpenStreetMap"},"geometry":{"type":"LineString","coordinates":[[128.8749542,71.7084093],[128.8743136,71.7086979]]}},{"type":"Feature","id":"osm-road-140363402","properties":{"roadId":"osm-road-140363402","osmId":140363402,"highway":"service","name":null,"surface":null,"lanes":null,"maxspeed":null,"source":"OpenStreetMap"},"geometry":{"type":"LineString","coordinates":[[128.8792737,71.7029236],[128.8790376,71.7023543],[128.887198,71.7019374]]}},{"type":"Feature","id":"osm-road-140363790","properties":{"roadId":"osm-road-140363790","osmId":140363790,"highway":"service","name":null,"surface":null,"lanes":null,"maxspeed":null,"source":"OpenStreetMap"},"geometry":{"type":"LineString","coordinates":[[128.8698645,71.6859939],[128.8727505,71.6867592],[128.8738342,71.6869378],[128.8756152,71.687194],[128.8765914,71.6873626],[128.8780175,71.6877277]]}},{"type":"Feature","id":"osm-road-140364015","properties":{"roadId":"osm-road-140364015","osmId":140364015,"highway":"residential","name":null,"surface":null,"lanes":null,"maxspeed":null,"source":"OpenStreetMap"},"geometry":{"type":"LineString","coordinates":[[128.8748266,71.6891492],[128.8744998,71.6890884],[128.873622,71.6890119],[128.8676897,71.6887666]]}},{"type":"Feature","id":"osm-road-140364016","properties":{"roadId":"osm-road-140364016","osmId":140364016,"highway":"service","name":null,"surface":null,"lanes":null,"maxspeed":null,"source":"OpenStreetMap"},"geometry":{"type":"LineString","coordinates":[[128.8657628,71.6900869],[128.8660021,71.6898183],[128.8651063,71.6897694]]}},{"type":"Feature","id":"osm-road-140364018","properties":{"roadId":"osm-road-140364018","osmId":140364018,"highway":"service","name":null,"surface":null,"lanes":null,"maxspeed":null,"source":"OpenStreetMap"},"geometry":{"type":"LineString","coordinates":[[128.8672681,71.6879357],[128.8670782,71.6885172],[128.8674719,71.6885357],[128.8676575,71.6885745],[128.8677187,71.6886233],[128.8676897,71.6887666],[128.8673968,71.689702],[128.8674612,71.6901435],[128.8674076,71.6902042],[128.8671501,71.6902311],[128.8662488,71.6901772],[128.8657628,71.6900869],[128.8653517,71.6899927],[128.8650687,71.6899278],[128.8651063,71.6897694]]}},{"type":"Feature","id":"osm-road-142240277","properties":{"roadId":"osm-road-142240277","osmId":142240277,"highway":"residential","name":"улица Академика Фёдорова","surface":null,"lanes":null,"maxspeed":null,"source":"OpenStreetMap"},"geometry":{"type":"LineString","coordinates":[[128.8754154,71.6398333],[128.8752929,71.6395593],[128.8748002,71.6392849],[128.8746393,71.6390246],[128.8739955,71.6385819],[128.8735449,71.6382372],[128.8724291,71.6375781],[128.8716558,71.6371867],[128.8714305,71.6371394],[128.870894,71.6369231],[128.870455,71.6367027]]}},{"type":"Feature","id":"osm-road-142240290","properties":{"roadId":"osm-road-142240290","osmId":142240290,"highway":"residential","name":"Восточная улица","surface":null,"lanes":null,"maxspeed":null,"source":"OpenStreetMap"},"geometry":{"type":"LineString","coordinates":[[128.8575804,71.6359963],[128.8588786,71.6356278],[128.8593829,71.635398],[128.8597155,71.6351816]]}},{"type":"Feature","id":"osm-road-180589936","properties":{"roadId":"osm-road-180589936","osmId":180589936,"highway":"tertiary","name":null,"surface":"unpaved","lanes":null,"maxspeed":null,"source":"OpenStreetMap"},"geometry":{"type":"LineString","coordinates":[[128.8470125,71.6328119],[128.8462937,71.6325583],[128.845253,71.6322642],[128.8445449,71.6321628],[128.8431716,71.6320276],[128.8422596,71.6318788],[128.8413691,71.6316388],[128.8402748,71.6312533],[128.8396954,71.6311046],[128.8387942,71.6309558],[128.8376462,71.6308476],[128.8357043,71.6307394]]}},{"type":"Feature","id":"osm-road-180589937","properties":{"roadId":"osm-road-180589937","osmId":180589937,"highway":"unclassified","name":null,"surface":"gravel","lanes":null,"maxspeed":null,"source":"OpenStreetMap"},"geometry":{"type":"LineString","coordinates":[[128.8137746,71.6219838],[128.8140777,71.620786],[128.8136586,71.6201573],[128.8127086,71.6195286],[128.8115211,71.6191514],[128.8108645,71.6186205],[128.8107527,71.6182992],[128.8107807,71.6173772],[128.8107108,71.6166647],[128.8103336,71.6161338],[128.8100123,71.6156029],[128.8099564,71.6151978],[128.810152,71.6149323],[128.8104314,71.6144992],[128.8102358,71.6138845],[128.8103755,71.6132419],[128.8105432,71.6126412],[128.8108645,71.6120823],[128.811563,71.6116073],[128.812499,71.6112022],[128.8142174,71.6100985],[128.8152233,71.6091905],[128.8157262,71.608478],[128.8156703,71.6073324],[128.8155446,71.6064243],[128.8158939,71.6058794],[128.8165505,71.6055721],[128.8170674,71.6052647],[128.8168159,71.6049295],[128.8161174,71.604678],[128.812038,71.6031552],[128.8077072,71.6016324],[128.8060167,71.600878],[128.8028175,71.6007104],[128.8017958,71.6004478],[128.8009751,71.6002159],[128.8005674,71.6001058],[128.8003957,71.6001007],[128.8000202,71.6001295]]}},{"type":"Feature","id":"osm-road-232174840","properties":{"roadId":"osm-road-232174840","osmId":232174840,"highway":"tertiary","name":null,"surface":null,"lanes":null,"maxspeed":null,"source":"OpenStreetMap"},"geometry":{"type":"LineString","coordinates":[[128.8867548,71.6924648],[128.8864517,71.6926947],[128.8844207,71.6938672],[128.8840254,71.6941646]]}},{"type":"Feature","id":"osm-road-232174841","properties":{"roadId":"osm-road-232174841","osmId":232174841,"highway":"service","name":null,"surface":null,"lanes":null,"maxspeed":null,"source":"OpenStreetMap"},"geometry":{"type":"LineString","coordinates":[[128.8695576,71.6940163],[128.8693218,71.6948343],[128.8690247,71.695486],[128.8692652,71.6956548]]}},{"type":"Feature","id":"osm-road-232174842","properties":{"roadId":"osm-road-232174842","osmId":232174842,"highway":"service","name":null,"surface":null,"lanes":null,"maxspeed":null,"source":"OpenStreetMap"},"geometry":{"type":"LineString","coordinates":[[128.8757551,71.6941145],[128.8760166,71.6940089],[128.8761287,71.6936569],[128.8761516,71.6935447]]}},{"type":"Feature","id":"osm-road-232174844","properties":{"roadId":"osm-road-232174844","osmId":232174844,"highway":"service","name":null,"surface":null,"lanes":null,"maxspeed":null,"source":"OpenStreetMap"},"geometry":{"type":"LineString","coordinates":[[128.8485101,71.6903616],[128.8488301,71.6895112]]}},{"type":"Feature","id":"osm-road-232174845","properties":{"roadId":"osm-road-232174845","osmId":232174845,"highway":"service","name":null,"surface":null,"lanes":null,"maxspeed":null,"source":"OpenStreetMap"},"geometry":{"type":"LineString","coordinates":[[128.8440391,71.690262],[128.8448059,71.6896113],[128.845389,71.689267],[128.8458753,71.6891491],[128.8465622,71.6890656],[128.847642,71.689054],[128.8494548,71.6890774],[128.8508371,71.6891243],[128.8540493,71.6891772],[128.8547587,71.689203],[128.8551379,71.6892479],[128.8553705,71.6894104],[128.8550521,71.6898783],[128.8551805,71.6900676],[128.855719,71.6902459]]}},{"type":"Feature","id":"osm-road-232174846","properties":{"roadId":"osm-road-232174846","osmId":232174846,"highway":"service","name":null,"surface":null,"lanes":null,"maxspeed":null,"source":"OpenStreetMap"},"geometry":{"type":"LineString","coordinates":[[128.8508371,71.6891243],[128.8503328,71.6889717],[128.8499778,71.6887722],[128.8499218,71.6885316],[128.8499778,71.6883966]]}},{"type":"Feature","id":"osm-road-232174847","properties":{"roadId":"osm-road-232174847","osmId":232174847,"highway":"service","name":null,"surface":null,"lanes":null,"maxspeed":null,"source":"OpenStreetMap"},"geometry":{"type":"LineString","coordinates":[[128.8499778,71.6887722],[128.8499031,71.6889658],[128.8494548,71.6890774]]}},{"type":"Feature","id":"osm-road-232174848","properties":{"roadId":"osm-road-232174848","osmId":232174848,"highway":"service","name":null,"surface":null,"lanes":null,"maxspeed":null,"source":"OpenStreetMap"},"geometry":{"type":"LineString","coordinates":[[128.8553705,71.6894104],[128.8561041,71.6893709],[128.8579145,71.6894546],[128.8584551,71.689467],[128.8601016,71.6896057],[128.8610542,71.6896291],[128.8615026,71.6896585],[128.8620443,71.6896878],[128.8622924,71.6896055],[128.8626259,71.6893874],[128.8631147,71.6891033],[128.8633612,71.6887243]]}},{"type":"Feature","id":"osm-road-232174849","properties":{"roadId":"osm-road-232174849","osmId":232174849,"highway":"service","name":null,"surface":null,"lanes":null,"maxspeed":null,"source":"OpenStreetMap"},"geometry":{"type":"LineString","coordinates":[[128.8584551,71.689467],[128.8587913,71.689291],[128.8594078,71.6891208],[128.8601176,71.6889506],[128.8602857,71.6887569],[128.8601923,71.6885339],[128.8603791,71.6883461]]}},{"type":"Feature","id":"osm-road-232174852","properties":{"roadId":"osm-road-232174852","osmId":232174852,"highway":"service","name":null,"surface":null,"lanes":null,"maxspeed":null,"source":"OpenStreetMap"},"geometry":{"type":"LineString","coordinates":[[128.873622,71.6890119],[128.8741248,71.6881419]]}},{"type":"Feature","id":"osm-road-233041174","properties":{"roadId":"osm-road-233041174","osmId":233041174,"highway":"service","name":null,"surface":null,"lanes":null,"maxspeed":null,"source":"OpenStreetMap"},"geometry":{"type":"LineString","coordinates":[[128.7489123,71.6338321],[128.7492117,71.6334242],[128.7489786,71.6329403],[128.7488075,71.6325168],[128.7494136,71.6321207],[128.7512147,71.6319261],[128.753459,71.6317527],[128.7545686,71.631551],[128.7562117,71.6308651],[128.7563611,71.6305019],[128.753459,71.6299101],[128.7514104,71.6287265],[128.7515598,71.6282355],[128.7538004,71.6277849],[128.7560197,71.6272334],[128.7567239,71.6268164],[128.7580255,71.6266078],[128.7632749,71.626702],[128.7662624,71.6266751],[128.7730695,71.6267155],[128.7788311,71.6274553],[128.7802608,71.6275293],[128.7846993,71.6282019],[128.7887324,71.628592],[128.7910583,71.6287668],[128.7924135,71.6288391],[128.7940458,71.6290964],[128.7957716,71.6293193],[128.7967586,71.6295188],[128.7977028,71.6297961],[128.7985504,71.6300767],[128.799752,71.6304757],[128.8005781,71.6308003],[128.8011789,71.6310437],[128.8020694,71.6313852]]}},{"type":"Feature","id":"osm-road-233043993","properties":{"roadId":"osm-road-233043993","osmId":233043993,"highway":"service","name":null,"surface":null,"lanes":null,"maxspeed":null,"source":"OpenStreetMap"},"geometry":{"type":"LineString","coordinates":[[128.8226151,71.633674],[128.8226151,71.6334339],[128.8223576,71.6332007],[128.8220465,71.6328964],[128.8220787,71.6325854],[128.8223147,71.6323014]]}},{"type":"Feature","id":"osm-road-233043996","properties":{"roadId":"osm-road-233043996","osmId":233043996,"highway":"service","name":null,"surface":null,"lanes":null,"maxspeed":null,"source":"OpenStreetMap"},"geometry":{"type":"LineString","coordinates":[[128.7271124,71.6577081],[128.726871,71.6579714],[128.726517,71.6582382],[128.7263667,71.6587243],[128.7286305,71.659808],[128.7293601,71.6600882],[128.7300682,71.6604663],[128.7301218,71.660625],[128.7302291,71.6609288],[128.7299322,71.661257],[128.7277757,71.6633051],[128.7265599,71.664365],[128.7256213,71.665393],[128.7219241,71.665013]]}},{"type":"Feature","id":"osm-road-233043997","properties":{"roadId":"osm-road-233043997","osmId":233043997,"highway":"service","name":null,"surface":null,"lanes":null,"maxspeed":null,"source":"OpenStreetMap"},"geometry":{"type":"LineString","coordinates":[[128.7277757,71.6633051],[128.7297211,71.6639169],[128.7301619,71.6640015]]}},{"type":"Feature","id":"osm-road-233043999","properties":{"roadId":"osm-road-233043999","osmId":233043999,"highway":"service","name":null,"surface":null,"lanes":null,"maxspeed":null,"source":"OpenStreetMap"},"geometry":{"type":"LineString","coordinates":[[128.7219241,71.665013],[128.7155591,71.6643426],[128.713548,71.6641858],[128.7095085,71.6635693],[128.7050737,71.6631583],[128.7018642,71.6627441],[128.6947831,71.662177],[128.6893543,71.6617517],[128.685728,71.6614344],[128.6831531,71.6612588],[128.6813935,71.6611981],[128.6802777,71.6610563]]}},{"type":"Feature","id":"osm-road-233044002","properties":{"roadId":"osm-road-233044002","osmId":233044002,"highway":"service","name":null,"surface":null,"lanes":null,"maxspeed":null,"source":"OpenStreetMap"},"geometry":{"type":"LineString","coordinates":[[128.8800348,71.6642622],[128.8697136,71.6663142],[128.8659563,71.6670936]]}},{"type":"Feature","id":"osm-road-233044003","properties":{"roadId":"osm-road-233044003","osmId":233044003,"highway":"service","name":null,"surface":null,"lanes":null,"maxspeed":null,"source":"OpenStreetMap"},"geometry":{"type":"LineString","coordinates":[[128.8697136,71.6663142],[128.8805927,71.664944]]}},{"type":"Feature","id":"osm-road-233044004","properties":{"roadId":"osm-road-233044004","osmId":233044004,"highway":"service","name":null,"surface":null,"lanes":null,"maxspeed":null,"source":"OpenStreetMap"},"geometry":{"type":"LineString","coordinates":[[128.8739419,71.6715627],[128.8861093,71.6704489]]}},{"type":"Feature","id":"osm-road-233044005","properties":{"roadId":"osm-road-233044005","osmId":233044005,"highway":"service","name":null,"surface":null,"lanes":null,"maxspeed":null,"source":"OpenStreetMap"},"geometry":{"type":"LineString","coordinates":[[128.8731694,71.6773648],[128.8754415,71.6769822],[128.8761742,71.6768346],[128.8807856,71.6759135],[128.8837403,71.6753434],[128.8865506,71.6747536],[128.891052,71.673961]]}},{"type":"Feature","id":"osm-road-233044007","properties":{"roadId":"osm-road-233044007","osmId":233044007,"highway":"service","name":null,"surface":null,"lanes":null,"maxspeed":null,"source":"OpenStreetMap"},"geometry":{"type":"LineString","coordinates":[[128.8754415,71.6769822],[128.877459,71.6771012],[128.8820174,71.6775457],[128.8845205,71.6778303],[128.8858161,71.6778508],[128.8896147,71.6775258]]}},{"type":"Feature","id":"osm-road-233044009","properties":{"roadId":"osm-road-233044009","osmId":233044009,"highway":"service","name":null,"surface":null,"lanes":null,"maxspeed":null,"source":"OpenStreetMap"},"geometry":{"type":"LineString","coordinates":[[128.8617431,71.6651951],[128.8615707,71.6654681],[128.8616896,71.6656542],[128.8616101,71.6658059],[128.8609934,71.6666193],[128.8601823,71.6672703],[128.8596926,71.6681884],[128.8590048,71.6691331],[128.8601471,71.6706198],[128.8613774,71.671576],[128.8615707,71.6719849],[128.8620979,71.6734162],[128.861887,71.6736594],[128.8594266,71.6745877],[128.8582842,71.6746982],[128.8561226,71.674433],[128.8551559,71.6739357],[128.8543124,71.6738528],[128.8529064,71.6737865],[128.8488818,71.6730294],[128.8478625,71.6724602],[128.8440136,71.6711394]]}},{"type":"Feature","id":"osm-road-233319542","properties":{"roadId":"osm-road-233319542","osmId":233319542,"highway":"service","name":null,"surface":null,"lanes":null,"maxspeed":null,"source":"OpenStreetMap"},"geometry":{"type":"LineString","coordinates":[[128.7806654,71.5881239],[128.7850728,71.5904329]]}},{"type":"Feature","id":"osm-road-233319543","properties":{"roadId":"osm-road-233319543","osmId":233319543,"highway":"unclassified","name":null,"surface":null,"lanes":null,"maxspeed":null,"source":"OpenStreetMap"},"geometry":{"type":"LineString","coordinates":[[128.7902355,71.5929386],[128.7905204,71.5926291],[128.790511,71.5925127],[128.7901451,71.5922252],[128.7887685,71.5914812],[128.7885404,71.5910921],[128.787682,71.5905636],[128.7873387,71.5902891],[128.786695,71.5899266],[128.7863317,71.5894096],[128.7859547,71.5890524],[128.7857079,71.5887237],[128.7851989,71.5883779],[128.7837236,71.5876872],[128.7823498,71.5870463],[128.7809311,71.5863059],[128.7798607,71.5857517],[128.7784942,71.5850077],[128.776803,71.5842367],[128.7764168,71.584091],[128.7760193,71.5839453],[128.7755585,71.5839723],[128.7749147,71.5840503],[128.7735629,71.5842774],[128.7728977,71.5843926],[128.7722964,71.5844131],[128.7707627,71.5843858],[128.7692284,71.5844435],[128.7679732,71.584518],[128.7676191,71.5844841],[128.7665141,71.5842943]]}},{"type":"Feature","id":"osm-road-233319969","properties":{"roadId":"osm-road-233319969","osmId":233319969,"highway":"service","name":null,"surface":null,"lanes":null,"maxspeed":null,"source":"OpenStreetMap"},"geometry":{"type":"LineString","coordinates":[[128.8408887,71.6250309],[128.8433372,71.6255553],[128.8456514,71.6259361],[128.8478541,71.6264687],[128.8493407,71.6267933]]}},{"type":"Feature","id":"osm-road-233319971","properties":{"roadId":"osm-road-233319971","osmId":233319971,"highway":"unclassified","name":null,"surface":null,"lanes":null,"maxspeed":null,"source":"OpenStreetMap"},"geometry":{"type":"LineString","coordinates":[[128.855425,71.6183886],[128.8529309,71.6179725],[128.8518129,71.6176766],[128.8513137,71.6173996],[128.8501557,71.6173492],[128.8492773,71.6175255],[128.8483589,71.618344],[128.8481193,71.6191247],[128.8486783,71.6203145],[128.848838,71.6205412],[128.849457,71.6212084],[128.8508286,71.6221094],[128.8515494,71.622824],[128.8517091,71.6230758],[128.8515694,71.623252],[128.8510703,71.6233905],[128.8499921,71.6237367],[128.8495175,71.6243861],[128.8492085,71.6254938],[128.8495115,71.6263234],[128.8493407,71.6267933],[128.8493267,71.6274143],[128.8495123,71.6278754],[128.8498664,71.6282778]]}},{"type":"Feature","id":"osm-road-233323292","properties":{"roadId":"osm-road-233323292","osmId":233323292,"highway":"service","name":null,"surface":null,"lanes":null,"maxspeed":null,"source":"OpenStreetMap"},"geometry":{"type":"LineString","coordinates":[[128.7376213,71.6511097],[128.7372136,71.6514069],[128.7375355,71.6519405],[128.7383938,71.6525552],[128.7389373,71.6533742],[128.7387665,71.6536546],[128.7342844,71.6546771],[128.7303761,71.6555509],[128.7295272,71.6558288],[128.7274289,71.6577216]]}},{"type":"Feature","id":"osm-road-233652896","properties":{"roadId":"osm-road-233652896","osmId":233652896,"highway":"residential","name":"улица 50 лет Северного Морского Пути","surface":null,"lanes":null,"maxspeed":null,"source":"OpenStreetMap"},"geometry":{"type":"LineString","coordinates":[[128.858884,71.6389418],[128.8594258,71.6390179],[128.8608044,71.6394285],[128.8616466,71.6396431],[128.8672793,71.6409137],[128.8701761,71.6414426],[128.8705409,71.6414831],[128.8709861,71.6414933],[128.8714421,71.6414426],[128.8722405,71.6413352],[128.8731202,71.6414433],[128.8736352,71.6413352],[128.8739907,71.6411178]]}},{"type":"Feature","id":"osm-road-233652897","properties":{"roadId":"osm-road-233652897","osmId":233652897,"highway":"residential","name":"Больничная улица","surface":null,"lanes":null,"maxspeed":null,"source":"OpenStreetMap"},"geometry":{"type":"LineString","coordinates":[[128.8573398,71.6389869],[128.8560194,71.6384805],[128.8552254,71.6382084],[128.8546193,71.6380547]]}},{"type":"Feature","id":"osm-road-234279089","properties":{"roadId":"osm-road-234279089","osmId":234279089,"highway":"service","name":null,"surface":null,"lanes":null,"maxspeed":null,"source":"OpenStreetMap"},"geometry":{"type":"LineString","coordinates":[[128.8523674,71.6392977],[128.8522857,71.6394353],[128.8524252,71.6395231],[128.8527471,71.6396313],[128.8530582,71.6396786],[128.8533533,71.6396921],[128.8538682,71.6396093],[128.8547695,71.6395485]]}},{"type":"Feature","id":"osm-road-234279091","properties":{"roadId":"osm-road-234279091","osmId":234279091,"highway":"service","name":null,"surface":null,"lanes":null,"maxspeed":null,"source":"OpenStreetMap"},"geometry":{"type":"LineString","coordinates":[[128.8474735,71.6313141],[128.8471428,71.6312585],[128.8465297,71.6311198]]}},{"type":"Feature","id":"osm-road-234279092","properties":{"roadId":"osm-road-234279092","osmId":234279092,"highway":"service","name":null,"surface":null,"lanes":null,"maxspeed":null,"source":"OpenStreetMap"},"geometry":{"type":"LineString","coordinates":[[128.8808834,71.6419816],[128.8809072,71.6420876],[128.8817525,71.6421066],[128.8828361,71.6422451],[128.8852072,71.6426134],[128.8860118,71.6427723],[128.8874388,71.6433332],[128.8882971,71.643671],[128.8903668,71.6435913],[128.890811,71.6435913],[128.8912349,71.6436866]]}},{"type":"Feature","id":"osm-road-234279094","properties":{"roadId":"osm-road-234279094","osmId":234279094,"highway":"service","name":null,"surface":null,"lanes":null,"maxspeed":null,"source":"OpenStreetMap"},"geometry":{"type":"LineString","coordinates":[[128.8874388,71.6433332],[128.8856792,71.6430392],[128.8835764,71.6427216],[128.8822031,71.6424817],[128.8813417,71.6423461],[128.8808727,71.6421961],[128.8809072,71.6420876]]}},{"type":"Feature","id":"osm-road-234279096","properties":{"roadId":"osm-road-234279096","osmId":234279096,"highway":"service","name":null,"surface":null,"lanes":null,"maxspeed":null,"source":"OpenStreetMap"},"geometry":{"type":"LineString","coordinates":[[128.8835764,71.6427216],[128.8836408,71.6433264],[128.8838661,71.644215]]}},{"type":"Feature","id":"osm-road-234279099","properties":{"roadId":"osm-road-234279099","osmId":234279099,"highway":"service","name":null,"surface":null,"lanes":null,"maxspeed":null,"source":"OpenStreetMap"},"geometry":{"type":"LineString","coordinates":[[128.8808834,71.6419816],[128.8818276,71.6419309],[128.8824177,71.6418937],[128.8838982,71.6420694],[128.8844132,71.6420356],[128.8847244,71.6418768],[128.8854968,71.6415727],[128.8859582,71.6413531],[128.8866126,71.6409678]]}},{"type":"Feature","id":"osm-road-234279101","properties":{"roadId":"osm-road-234279101","osmId":234279101,"highway":"service","name":null,"surface":null,"lanes":null,"maxspeed":null,"source":"OpenStreetMap"},"geometry":{"type":"LineString","coordinates":[[128.8810658,71.6417687],[128.8822715,71.6413596],[128.8834085,71.6411594]]}},{"type":"Feature","id":"osm-road-234279102","properties":{"roadId":"osm-road-234279102","osmId":234279102,"highway":"service","name":null,"surface":null,"lanes":null,"maxspeed":null,"source":"OpenStreetMap"},"geometry":{"type":"LineString","coordinates":[[128.8866126,71.6409678],[128.8874066,71.6403629],[128.8877928,71.6398932],[128.8880396,71.6394133],[128.8881254,71.6386461],[128.8882471,71.6383327],[128.8881791,71.6380986]]}},{"type":"Feature","id":"osm-road-234279104","properties":{"roadId":"osm-road-234279104","osmId":234279104,"highway":"service","name":null,"surface":null,"lanes":null,"maxspeed":null,"source":"OpenStreetMap"},"geometry":{"type":"LineString","coordinates":[[128.8744673,71.6411994],[128.8750722,71.6408698],[128.8754558,71.6406409],[128.8755365,71.6404947],[128.875505,71.6403225],[128.8754154,71.6398333],[128.8762835,71.6398079],[128.8766267,71.6398906],[128.8766724,71.6401466],[128.8765758,71.640297],[128.875505,71.6403225]]}},{"type":"Feature","id":"osm-road-234279106","properties":{"roadId":"osm-road-234279106","osmId":234279106,"highway":"service","name":null,"surface":null,"lanes":null,"maxspeed":null,"source":"OpenStreetMap"},"geometry":{"type":"LineString","coordinates":[[128.8509554,71.6348352],[128.8525755,71.6344093],[128.8529026,71.6343433]]}},{"type":"Feature","id":"osm-road-234279108","properties":{"roadId":"osm-road-234279108","osmId":234279108,"highway":"service","name":null,"surface":null,"lanes":null,"maxspeed":null,"source":"OpenStreetMap"},"geometry":{"type":"LineString","coordinates":[[128.8374478,71.6357935],[128.8387245,71.6357799],[128.8392073,71.6358171],[128.8398188,71.6358526],[128.8407952,71.635905],[128.8413155,71.6359642],[128.8413638,71.6360537],[128.8415354,71.6361484],[128.841927,71.6362988],[128.8421577,71.6364238],[128.8423562,71.6365557],[128.8427103,71.6368142],[128.8433057,71.6370897],[128.8437831,71.6373364],[128.8443518,71.6375595],[128.8446522,71.6375916],[128.8451671,71.6375916]]}},{"type":"Feature","id":"osm-road-234281098","properties":{"roadId":"osm-road-234281098","osmId":234281098,"highway":"service","name":null,"surface":null,"lanes":null,"maxspeed":null,"source":"OpenStreetMap"},"geometry":{"type":"LineString","coordinates":[[128.8563128,71.6936018],[128.8562248,71.6939449],[128.8561354,71.6942932],[128.855911,71.6944765],[128.8554321,71.6946034],[128.8526584,71.694511]]}},{"type":"Feature","id":"osm-road-234281099","properties":{"roadId":"osm-road-234281099","osmId":234281099,"highway":"service","name":null,"surface":null,"lanes":null,"maxspeed":null,"source":"OpenStreetMap"},"geometry":{"type":"LineString","coordinates":[[128.8626597,71.6910905],[128.8627059,71.6909702],[128.8628556,71.6905589]]}},{"type":"Feature","id":"osm-road-234281100","properties":{"roadId":"osm-road-234281100","osmId":234281100,"highway":"service","name":null,"surface":null,"lanes":null,"maxspeed":null,"source":"OpenStreetMap"},"geometry":{"type":"LineString","coordinates":[[128.8627059,71.6909702],[128.8632416,71.6910069],[128.8644895,71.6910473]]}},{"type":"Feature","id":"osm-road-234281103","properties":{"roadId":"osm-road-234281103","osmId":234281103,"highway":"service","name":null,"surface":null,"lanes":null,"maxspeed":null,"source":"OpenStreetMap"},"geometry":{"type":"LineString","coordinates":[[128.8732225,71.6896363],[128.8757778,71.6902368],[128.8762153,71.690233],[128.8771443,71.6904646]]}},{"type":"Feature","id":"osm-road-234281105","properties":{"roadId":"osm-road-234281105","osmId":234281105,"highway":"service","name":null,"surface":null,"lanes":null,"maxspeed":null,"source":"OpenStreetMap"},"geometry":{"type":"LineString","coordinates":[[128.8762153,71.690233],[128.8769885,71.6899148],[128.8773121,71.6898583],[128.8777197,71.6898489],[128.878349,71.6900014]]}},{"type":"Feature","id":"osm-road-254617168","properties":{"roadId":"osm-road-254617168","osmId":254617168,"highway":"service","name":"Восточная улица","surface":null,"lanes":null,"maxspeed":null,"source":"OpenStreetMap"},"geometry":{"type":"LineString","coordinates":[[128.8636315,71.6338531],[128.8637495,71.6337551],[128.8640821,71.6336571],[128.8645005,71.6334745],[128.8648975,71.633292],[128.8651121,71.6331703],[128.8649619,71.6329404],[128.8644898,71.6326564],[128.8641035,71.6325583],[128.8640606,71.6324366],[128.8644254,71.6322439],[128.8648009,71.6321222],[128.8655949,71.631632]]}},{"type":"Feature","id":"osm-road-254617169","properties":{"roadId":"osm-road-254617169","osmId":254617169,"highway":"service","name":null,"surface":null,"lanes":null,"maxspeed":null,"source":"OpenStreetMap"},"geometry":{"type":"LineString","coordinates":[[128.8640821,71.6336571],[128.8665926,71.633745],[128.8679552,71.6337686],[128.8685882,71.6336503],[128.8694181,71.6335142],[128.8705125,71.6334399],[128.8717747,71.6333325],[128.872515,71.6333629],[128.8729334,71.633488],[128.874596,71.6340324]]}},{"type":"Feature","id":"osm-road-254617170","properties":{"roadId":"osm-road-254617170","osmId":254617170,"highway":"service","name":null,"surface":null,"lanes":null,"maxspeed":null,"source":"OpenStreetMap"},"geometry":{"type":"LineString","coordinates":[[128.872515,71.6333629],[128.8738453,71.6325482],[128.8742729,71.6324645],[128.8785322,71.6329479]]}},{"type":"Feature","id":"osm-road-254617171","properties":{"roadId":"osm-road-254617171","osmId":254617171,"highway":"service","name":null,"surface":null,"lanes":null,"maxspeed":null,"source":"OpenStreetMap"},"geometry":{"type":"LineString","coordinates":[[128.8594794,71.6319768],[128.8602197,71.6317267],[128.8616896,71.631206],[128.8624835,71.6309152]]}},{"type":"Feature","id":"osm-road-254617172","properties":{"roadId":"osm-road-254617172","osmId":254617172,"highway":"service","name":null,"surface":null,"lanes":null,"maxspeed":null,"source":"OpenStreetMap"},"geometry":{"type":"LineString","coordinates":[[128.8487181,71.6294073],[128.8495338,71.629343],[128.8502097,71.6293227],[128.8505423,71.6293463],[128.8515293,71.6296067],[128.852731,71.6298806],[128.8537824,71.6301781],[128.8546944,71.630381],[128.8553595,71.6304993],[128.8556921,71.6305906]]}},{"type":"Feature","id":"osm-road-254617173","properties":{"roadId":"osm-road-254617173","osmId":254617173,"highway":"service","name":null,"surface":null,"lanes":null,"maxspeed":null,"source":"OpenStreetMap"},"geometry":{"type":"LineString","coordinates":[[128.8725088,71.6784554],[128.868081,71.6779027],[128.8678892,71.6778783],[128.8671382,71.6777906],[128.8639138,71.6773095],[128.8637478,71.6772847],[128.8626535,71.6770689],[128.8624604,71.6768935],[128.8627393,71.6767383],[128.8676265,71.6747402],[128.867739,71.6746942],[128.8696272,71.6739453],[128.8700779,71.6737632],[128.8704426,71.6736013],[128.8706572,71.6736013],[128.8713009,71.6736215],[128.8716443,71.6737025],[128.8722665,71.6737834],[128.8724597,71.6739049],[128.8724597,71.674087],[128.8721807,71.6745998],[128.8716228,71.6748224],[128.8709791,71.6751395],[128.8706787,71.6752137],[128.8692625,71.6749978],[128.8676265,71.6747402]]}},{"type":"Feature","id":"osm-road-254617174","properties":{"roadId":"osm-road-254617174","osmId":254617174,"highway":"service","name":null,"surface":null,"lanes":null,"maxspeed":null,"source":"OpenStreetMap"},"geometry":{"type":"LineString","coordinates":[[128.8692625,71.6749978],[128.8639138,71.6773095]]}},{"type":"Feature","id":"osm-road-254617175","properties":{"roadId":"osm-road-254617175","osmId":254617175,"highway":"service","name":null,"surface":null,"lanes":null,"maxspeed":null,"source":"OpenStreetMap"},"geometry":{"type":"LineString","coordinates":[[128.8706787,71.6752137],[128.8705499,71.6754093],[128.8707216,71.6755713],[128.8710864,71.6756252],[128.8706143,71.6759153],[128.8706143,71.6761379],[128.868081,71.6779027]]}},{"type":"Feature","id":"osm-road-254617176","properties":{"roadId":"osm-road-254617176","osmId":254617176,"highway":"service","name":null,"surface":null,"lanes":null,"maxspeed":null,"source":"OpenStreetMap"},"geometry":{"type":"LineString","coordinates":[[128.8715692,71.6838319],[128.8705714,71.6843713],[128.8702817,71.6844084],[128.8688964,71.6840819],[128.8674544,71.683742],[128.8661189,71.6834273]]}},{"type":"Feature","id":"osm-road-254617177","properties":{"roadId":"osm-road-254617177","osmId":254617177,"highway":"service","name":null,"surface":null,"lanes":null,"maxspeed":null,"source":"OpenStreetMap"},"geometry":{"type":"LineString","coordinates":[[128.8665588,71.6841387],[128.8674544,71.683742],[128.8685651,71.6832216]]}},{"type":"Feature","id":"osm-road-254617178","properties":{"roadId":"osm-road-254617178","osmId":254617178,"highway":"service","name":null,"surface":null,"lanes":null,"maxspeed":null,"source":"OpenStreetMap"},"geometry":{"type":"LineString","coordinates":[[128.8679536,71.6830732],[128.8685651,71.6832216],[128.8701541,71.6835444],[128.8715692,71.6838319]]}},{"type":"Feature","id":"osm-road-254617179","properties":{"roadId":"osm-road-254617179","osmId":254617179,"highway":"service","name":null,"surface":null,"lanes":null,"maxspeed":null,"source":"OpenStreetMap"},"geometry":{"type":"LineString","coordinates":[[128.8701541,71.6835444],[128.8688964,71.6840819],[128.8685544,71.6842398]]}},{"type":"Feature","id":"osm-road-254617180","properties":{"roadId":"osm-road-254617180","osmId":254617180,"highway":"service","name":null,"surface":null,"lanes":null,"maxspeed":null,"source":"OpenStreetMap"},"geometry":{"type":"LineString","coordinates":[[128.8715692,71.6838319],[128.8724918,71.6840139],[128.8725455,71.6842095],[128.8729961,71.6842836],[128.8734896,71.684287],[128.8742085,71.6841233]]}},{"type":"Feature","id":"osm-road-298792465","properties":{"roadId":"osm-road-298792465","osmId":298792465,"highway":"unclassified","name":null,"surface":null,"lanes":null,"maxspeed":null,"source":"OpenStreetMap"},"geometry":{"type":"LineString","coordinates":[[128.887198,71.7019374],[128.8878868,71.7035324],[128.8890042,71.7061178],[128.8889741,71.7061798]]}},{"type":"Feature","id":"osm-road-298792470","properties":{"roadId":"osm-road-298792470","osmId":298792470,"highway":"tertiary","name":null,"surface":null,"lanes":null,"maxspeed":null,"source":"OpenStreetMap"},"geometry":{"type":"LineString","coordinates":[[128.8840254,71.6941646],[128.8843945,71.6954134],[128.8858631,71.6986428]]}},{"type":"Feature","id":"osm-road-298792471","properties":{"roadId":"osm-road-298792471","osmId":298792471,"highway":"residential","name":null,"surface":null,"lanes":null,"maxspeed":null,"source":"OpenStreetMap"},"geometry":{"type":"LineString","coordinates":[[128.8867548,71.6924648],[128.8879055,71.6936678],[128.8885358,71.6943823],[128.8883105,71.6945508],[128.8878143,71.6946088],[128.8868085,71.6944732],[128.8840254,71.6941646]]}},{"type":"Feature","id":"osm-road-298792473","properties":{"roadId":"osm-road-298792473","osmId":298792473,"highway":"unclassified","name":null,"surface":null,"lanes":null,"maxspeed":null,"source":"OpenStreetMap"},"geometry":{"type":"LineString","coordinates":[[128.8889741,71.7061798],[128.8888513,71.7062452],[128.8887137,71.7062822],[128.8885713,71.7062985],[128.8809398,71.7066039],[128.8789657,71.7067386],[128.8779867,71.7070828],[128.8765796,71.7077259],[128.8749542,71.7084093]]}},{"type":"Feature","id":"osm-road-359216471","properties":{"roadId":"osm-road-359216471","osmId":359216471,"highway":"residential","name":null,"surface":null,"lanes":null,"maxspeed":null,"source":"OpenStreetMap"},"geometry":{"type":"LineString","coordinates":[[128.8451671,71.6375916],[128.8451779,71.6378046],[128.8452852,71.6379398],[128.8465083,71.6384704],[128.846852,71.6386499]]}},{"type":"Feature","id":"osm-road-359216472","properties":{"roadId":"osm-road-359216472","osmId":359216472,"highway":"residential","name":"Больничная улица","surface":null,"lanes":null,"maxspeed":null,"source":"OpenStreetMap"},"geometry":{"type":"LineString","coordinates":[[128.8479858,71.6390754],[128.8487238,71.6393406],[128.8492817,71.6394893],[128.8496304,71.639513],[128.8500193,71.6395071],[128.8523674,71.6392977],[128.8554641,71.639088],[128.8573398,71.6389869],[128.858884,71.6389418]]}},{"type":"Feature","id":"osm-road-359216473","properties":{"roadId":"osm-road-359216473","osmId":359216473,"highway":"residential","name":"улица Гагарина","surface":null,"lanes":null,"maxspeed":null,"source":"OpenStreetMap"},"geometry":{"type":"LineString","coordinates":[[128.858884,71.6389418],[128.8523224,71.636504]]}},{"type":"Feature","id":"osm-road-359216474","properties":{"roadId":"osm-road-359216474","osmId":359216474,"highway":"residential","name":null,"surface":null,"lanes":null,"maxspeed":null,"source":"OpenStreetMap"},"geometry":{"type":"LineString","coordinates":[[128.8584709,71.6335387],[128.8584173,71.633292],[128.8584065,71.6329877],[128.8586533,71.6327172],[128.8593721,71.6321324],[128.8594794,71.6319768],[128.8590824,71.6317943],[128.8556921,71.6305906]]}},{"type":"Feature","id":"osm-road-359216475","properties":{"roadId":"osm-road-359216475","osmId":359216475,"highway":"residential","name":"Ленинская улица","surface":null,"lanes":null,"maxspeed":null,"source":"OpenStreetMap"},"geometry":{"type":"LineString","coordinates":[[128.8647419,71.637636],[128.8685766,71.6390186],[128.8688945,71.6391417],[128.869881,71.6395569],[128.8699722,71.6397952],[128.8698757,71.640025],[128.8699713,71.6402386]]}},{"type":"Feature","id":"osm-road-359216476","properties":{"roadId":"osm-road-359216476","osmId":359216476,"highway":"residential","name":null,"surface":null,"lanes":null,"maxspeed":null,"source":"OpenStreetMap"},"geometry":{"type":"LineString","coordinates":[[128.8718069,71.6406333],[128.8739907,71.6411178],[128.8744673,71.6411994],[128.8766456,71.6415862],[128.8785124,71.6418498],[128.8802934,71.6420525]]}},{"type":"Feature","id":"osm-road-359217679","properties":{"roadId":"osm-road-359217679","osmId":359217679,"highway":"residential","name":"Восточная улица","surface":null,"lanes":null,"maxspeed":null,"source":"OpenStreetMap"},"geometry":{"type":"LineString","coordinates":[[128.8636315,71.6338531],[128.8612389,71.634563],[128.8598541,71.634983],[128.8597155,71.6351816]]}},{"type":"Feature","id":"osm-road-359217940","properties":{"roadId":"osm-road-359217940","osmId":359217940,"highway":"residential","name":null,"surface":null,"lanes":null,"maxspeed":null,"source":"OpenStreetMap"},"geometry":{"type":"LineString","coordinates":[[128.855719,71.6902459],[128.8582683,71.6903632],[128.8603619,71.6904595],[128.8613668,71.6904996],[128.8628556,71.6905589],[128.8655117,71.6905943],[128.8667401,71.6906301],[128.8705285,71.6907406]]}},{"type":"Feature","id":"osm-road-359217941","properties":{"roadId":"osm-road-359217941","osmId":359217941,"highway":"residential","name":null,"surface":null,"lanes":null,"maxspeed":null,"source":"OpenStreetMap"},"geometry":{"type":"LineString","coordinates":[[128.8697775,71.6933289],[128.8696635,71.6936854],[128.8695576,71.6940163],[128.8666145,71.6939498],[128.8659795,71.6939355],[128.864179,71.6938797],[128.862375,71.6938238],[128.8601218,71.6937413],[128.8563128,71.6936018]]}},{"type":"Feature","id":"osm-road-411926594","properties":{"roadId":"osm-road-411926594","osmId":411926594,"highway":"service","name":null,"surface":null,"lanes":null,"maxspeed":null,"source":"OpenStreetMap"},"geometry":{"type":"LineString","coordinates":[[128.8435999,71.6915257],[128.839277,71.6912051],[128.8347387,71.6909052],[128.8323784,71.6906996],[128.8306081,71.6903255],[128.8298893,71.6900355],[128.8291812,71.689321],[128.8285374,71.6884716],[128.8279581,71.6881581],[128.8250398,71.6877401],[128.8228512,71.6872614],[128.8221001,71.6870457],[128.8216924,71.6869917],[128.8205981,71.6869277],[128.8192248,71.6868029]]}},{"type":"Feature","id":"osm-road-411926596","properties":{"roadId":"osm-road-411926596","osmId":411926596,"highway":"unclassified","name":null,"surface":"unpaved","lanes":null,"maxspeed":null,"source":"OpenStreetMap"},"geometry":{"type":"LineString","coordinates":[[128.8432145,71.6929509],[128.843429,71.6941809],[128.8441908,71.6953333],[128.8406074,71.6967114],[128.8363695,71.6981332],[128.8339984,71.6989014],[128.8330006,71.6990227],[128.8317561,71.6990058],[128.8297927,71.6988812],[128.8236129,71.6985106],[128.8186132,71.6981602],[128.8135063,71.6977997],[128.8077664,71.6974021],[128.8062,71.6973617],[128.801093,71.697018],[128.7992585,71.6969406],[128.7938941,71.6967688],[128.7811206,71.6963919],[128.769276,71.6962167],[128.7627743,71.6971129],[128.7522386,71.6971264],[128.74593,71.6968299],[128.7347291,71.6967423],[128.7233565,71.6966682],[128.7191079,71.6969647],[128.7164686,71.6967086],[128.6998604,71.6938107],[128.6823295,71.6909596],[128.6752914,71.6895035],[128.6642407,71.6868743],[128.6447785,71.684076],[128.6299513,71.6812302],[128.6205314,71.681446],[128.6131929,71.6821676],[128.6042235,71.6802388],[128.598902,71.6786942],[128.5875724,71.6774126],[128.579676,71.6758813],[128.5780237,71.6748963],[128.5686467,71.6733513],[128.5539268,71.6706793],[128.5402153,71.6682229],[128.5340999,71.6676897],[128.5171483,71.6669608],[128.5011194,71.6653207],[128.4840606,71.6634711],[128.4686325,71.6617429],[128.4518312,71.6610272],[128.4428189,71.6605074],[128.4399865,71.6591908],[128.4115766,71.653991],[128.4033797,71.6529914],[128.3935521,71.6514986],[128.3827804,71.6497491],[128.3664511,71.646594],[128.3367966,71.6431614],[128.3161114,71.6392888],[128.2954262,71.6366999],[128.2753418,71.634212],[128.2555578,71.6311017],[128.2409452,71.6276866],[128.2184361,71.6256169],[128.2121926,71.6247673]]}},{"type":"Feature","id":"osm-road-411926597","properties":{"roadId":"osm-road-411926597","osmId":411926597,"highway":"service","name":null,"surface":null,"lanes":null,"maxspeed":null,"source":"OpenStreetMap"},"geometry":{"type":"LineString","coordinates":[[128.801093,71.697018],[128.8012272,71.69752]]}},{"type":"Feature","id":"osm-road-411926598","properties":{"roadId":"osm-road-411926598","osmId":411926598,"highway":"service","name":null,"surface":null,"lanes":null,"maxspeed":null,"source":"OpenStreetMap"},"geometry":{"type":"LineString","coordinates":[[128.8493728,71.6935507],[128.8446307,71.6931261],[128.8432145,71.6929509],[128.843193,71.6925734],[128.8435884,71.6917752]]}},{"type":"Feature","id":"osm-road-411926599","properties":{"roadId":"osm-road-411926599","osmId":411926599,"highway":"service","name":null,"surface":null,"lanes":null,"maxspeed":null,"source":"OpenStreetMap"},"geometry":{"type":"LineString","coordinates":[[128.8638031,71.7000873],[128.8653588,71.7002119],[128.8657182,71.7002287],[128.8669789,71.7001782],[128.8674617,71.7002152],[128.8676011,71.7003837],[128.8678586,71.7007879],[128.8684702,71.7019602],[128.8687813,71.7026035],[128.8691032,71.7027079],[128.8696182,71.7027551],[128.8703263,71.7027484],[128.8778202,71.7023878],[128.8790376,71.7023543]]}},{"type":"Feature","id":"osm-road-447545996","properties":{"roadId":"osm-road-447545996","osmId":447545996,"highway":"tertiary","name":null,"surface":null,"lanes":null,"maxspeed":null,"source":"OpenStreetMap"},"geometry":{"type":"LineString","coordinates":[[128.8020694,71.6313852],[128.8012755,71.6315711],[128.8005996,71.6318382],[128.7996983,71.6322811],[128.7982392,71.6329674],[128.7974131,71.6337247],[128.7967372,71.6344312],[128.7942911,71.6358121],[128.7926174,71.6367247],[128.7892056,71.6384349],[128.7820173,71.6397259],[128.778348,71.6402396],[128.7755371,71.6408952],[128.7709666,71.641571],[128.7684131,71.6417265],[128.762405,71.642328],[128.7565899,71.6426861],[128.7547905,71.6426969],[128.7498308,71.6427267],[128.7365914,71.6430308],[128.7356902,71.6430325],[128.7298322,71.6428838],[128.7219787,71.6427486],[128.7140608,71.6425797],[128.7056709,71.6423499],[128.6967874,71.6414849],[128.6896634,71.6402345],[128.6809516,71.6381392],[128.6711455,71.6358273],[128.6693859,71.6356312],[128.6669827,71.6356988],[128.6630774,71.6358881],[128.6582065,71.6358003],[128.6478854,71.6354825],[128.641212,71.6354622],[128.6314702,71.6353743],[128.6209345,71.6352797],[128.6116648,71.635131],[128.6087895,71.6350904],[128.5994983,71.6347524],[128.5872137,71.6345123],[128.5849715,71.6344684],[128.5741568,71.6346712],[128.558667,71.6361335]]}},{"type":"Feature","id":"osm-road-465014083","properties":{"roadId":"osm-road-465014083","osmId":465014083,"highway":"tertiary","name":"«Булун»","surface":null,"lanes":null,"maxspeed":null,"source":"OpenStreetMap"},"geometry":{"type":"LineString","coordinates":[[128.8936078,71.634083],[128.8930901,71.6340726],[128.8914192,71.6341725],[128.8891577,71.6341225],[128.8869251,71.6339682],[128.8854991,71.6339955],[128.8842459,71.6340953],[128.8823748,71.6339782],[128.8817203,71.6340391],[128.8813126,71.6342148],[128.8799286,71.6347016],[128.8791413,71.6349761],[128.8777187,71.635228],[128.8767743,71.635496]]}},{"type":"Feature","id":"osm-road-465014130","properties":{"roadId":"osm-road-465014130","osmId":465014130,"highway":"tertiary","name":"«Булун»","surface":null,"lanes":null,"maxspeed":null,"source":"OpenStreetMap"},"geometry":{"type":"LineString","coordinates":[[130.0056095,71.1003629],[130.0045681,71.100569],[130.0003624,71.1031265],[129.9971867,71.1054892],[129.9950409,71.1072401],[129.9918652,71.1101858],[129.9891186,71.1122976],[129.9839687,71.1146036],[129.9766731,71.1177148],[129.965601,71.1225752],[129.9535847,71.1271289],[129.9435425,71.1308212],[129.9322128,71.135262],[129.9250031,71.1381203],[129.9153042,71.1416439],[129.9077511,71.1448341],[129.8948765,71.150381],[129.8934174,71.1525716],[129.8858643,71.1561482],[129.8826027,71.1581995],[129.8727322,71.1633824],[129.868784,71.167234],[129.8632908,71.1727469],[129.8575401,71.1803072],[129.8562527,71.1821069],[129.8493862,71.1840171],[129.839344,71.1864807],[129.8344517,71.188003],[129.8341942,71.189802],[129.8281002,71.1915454],[129.8209763,71.1944784],[129.8133373,71.19766],[129.8032093,71.2016432],[129.7931671,71.205349],[129.7838974,71.2089435],[129.7727394,71.2139194],[129.7678471,71.2161858],[129.7646713,71.2177058],[129.7647572,71.2195849],[129.7644138,71.2208283],[129.7621822,71.2222927],[129.758749,71.223011],[129.7570324,71.2241161],[129.7497368,71.2252211],[129.7405529,71.2267404],[129.7348022,71.2279005],[129.7350597,71.2287844],[129.7357464,71.2296129],[129.7331715,71.2310214],[129.7242451,71.2348597],[129.7201252,71.2365163],[129.7104263,71.2402431],[129.704504,71.2422028],[129.6959209,71.2443003],[129.6911144,71.2459561],[129.6845055,71.2471702],[129.6806431,71.2483843],[129.6726608,71.2496259],[129.6687126,71.2501225],[129.6639919,71.2504812],[129.6609879,71.2504812],[129.6554089,71.251364],[129.6503448,71.2530743],[129.6475983,71.2545639],[129.6440792,71.2557775],[129.6366978,71.257515],[129.6271706,71.2593351],[129.6165276,71.2615687],[129.6104336,71.2634711],[129.6022797,71.2660625],[129.5923233,71.2677991],[129.5807362,71.2701695],[129.5753288,71.2700042],[129.5657158,71.2707207],[129.558506,71.2723191],[129.5446014,71.276783],[129.5420265,71.2783258],[129.5353317,71.2803092],[129.525032,71.2836145],[129.5167923,71.2861482],[129.5094109,71.2892322],[129.5028877,71.2920404],[129.493618,71.2959493],[129.4853783,71.300848],[129.4778252,71.3067357],[129.4730186,71.3092664],[129.4688988,71.3112467],[129.4668388,71.3149317],[129.4646072,71.3194957],[129.462204,71.3288403],[129.4575691,71.3363676],[129.4577408,71.338455],[129.4579124,71.3405971],[129.4610023,71.3446608],[129.4625473,71.3466924],[129.4610023,71.3518527],[129.4587708,71.3612915],[129.4584274,71.3694095],[129.4630623,71.3814705],[129.4656372,71.3851969],[129.4663239,71.386238],[129.4687271,71.3873338],[129.4699287,71.3891417],[129.472847,71.3922641],[129.4670105,71.3964814],[129.460144,71.4003144],[129.4536209,71.403216],[129.4496727,71.4064456],[129.4436646,71.4095105],[129.4412613,71.411207],[129.4362831,71.4144353],[129.4289017,71.4173348],[129.4225502,71.4206714],[129.4174004,71.4226403],[129.4143105,71.424609],[129.4086456,71.4327551],[129.4050407,71.4384935],[129.4017792,71.4443941],[129.3964577,71.4515489],[129.3940544,71.4543336],[129.386673,71.4664507],[129.3791199,71.4787238],[129.3758583,71.4848301],[129.3774033,71.4915884],[129.3842697,71.4958928],[129.3895912,71.4986167],[129.3892479,71.4994338],[129.3770599,71.5068403],[129.3641853,71.5135909],[129.3566322,71.5169653],[129.3518257,71.5239298],[129.3449593,71.5348613],[129.3365479,71.546819],[129.3351746,71.5537727],[129.3332863,71.5622984],[129.3310547,71.5670212],[129.3277931,71.5690837],[129.319725,71.5709832],[129.3169785,71.5727196],[129.3094254,71.5740219],[129.3017006,71.5763006],[129.2900276,71.5804776],[129.2811012,71.5819962],[129.2723465,71.5839486],[129.2649651,71.5887203],[129.2592144,71.5937347],[129.2562532,71.5941886],[129.252305,71.5961737],[129.2461896,71.5991813],[129.2403531,71.6020394],[129.2381644,71.6027641],[129.2346883,71.6036986],[129.2306113,71.6044773],[129.2254937,71.6052222],[129.2200756,71.6057368],[129.2134559,71.6066407],[129.2064178,71.6077578],[129.2038107,71.6077781],[129.1995621,71.6076597],[129.1951847,71.6078492],[129.1916656,71.6072263],[129.1894341,71.6061701],[129.185915,71.6051951],[129.1825676,71.6044909],[129.1778469,71.6040846],[129.1710663,71.6030011],[129.1631699,71.6020259],[129.151926,71.6003192],[129.1314125,71.598233],[129.120512,71.5976911],[129.0929604,71.5973659],[129.07691,71.5971491],[129.0646362,71.5974201],[129.0544224,71.5976098],[129.0461826,71.5982059],[129.0411186,71.5989103],[129.0363979,71.6000753],[129.0253258,71.6012674],[129.0145969,71.6021884],[128.9983749,71.6027031],[128.9880753,71.603597],[128.9826679,71.6041929],[128.9744282,71.6053576],[128.9697933,71.606143],[128.9567471,71.6070639],[128.9508247,71.6076867],[128.9463615,71.6085804],[128.9412117,71.6100698],[128.9328861,71.6126961],[128.9306545,71.6139145],[128.9297104,71.616432],[128.9287663,71.6174877],[128.9232731,71.6244698],[128.9212132,71.6269319],[128.9169216,71.6285551],[128.9134884,71.6302593],[128.9089394,71.6319904],[128.9019012,71.6334508],[128.8964134,71.6340704],[128.8936078,71.634083]]}},{"type":"Feature","id":"osm-road-479833651","properties":{"roadId":"osm-road-479833651","osmId":479833651,"highway":"unclassified","name":null,"surface":null,"lanes":null,"maxspeed":null,"source":"OpenStreetMap"},"geometry":{"type":"LineString","coordinates":[[128.9301724,71.585028],[128.9292812,71.5854297],[128.928203,71.5858161],[128.9274949,71.5860059],[128.926996,71.5861431],[128.9262718,71.586421],[128.9252579,71.5867447],[128.9246893,71.5870497],[128.9240456,71.5872801],[128.9236432,71.5873631],[128.9233535,71.5873852],[128.9230102,71.5873547],[128.9224631,71.5873259],[128.9219856,71.5873377],[128.9215457,71.5872852],[128.9211112,71.5872089],[128.9202422,71.5870632],[128.9196145,71.5869514],[128.9193088,71.5869022],[128.9190191,71.5868989],[128.9188582,71.5869209],[128.9187831,71.5870124],[128.9188367,71.5871174],[128.9191693,71.5872615],[128.9201081,71.5875732],[128.9206874,71.5877376],[128.9211649,71.5878596],[128.9214277,71.58799],[128.9214867,71.5880765],[128.9211863,71.5884001],[128.9208269,71.5885915],[128.9203173,71.5887559],[128.9189601,71.5891201],[128.9181554,71.5893878],[128.9175653,71.5896386],[128.9166534,71.5899164],[128.9160097,71.5901638],[128.9151943,71.5905805],[128.9141858,71.5911057],[128.9129197,71.5917901],[128.9115786,71.5925964],[128.9100873,71.5936669],[128.908478,71.5949678],[128.9080059,71.5953471],[128.9073408,71.5957198],[128.9068687,71.5958925],[128.9065683,71.5960178],[128.9063859,71.5962753],[128.906182,71.596387],[128.9060211,71.5964074]]}},{"type":"Feature","id":"osm-road-479835451","properties":{"roadId":"osm-road-479835451","osmId":479835451,"highway":"residential","name":"Первомайская улица","surface":null,"lanes":null,"maxspeed":null,"source":"OpenStreetMap"},"geometry":{"type":"LineString","coordinates":[[128.858884,71.6389418],[128.8600212,71.6389047],[128.8603806,71.6388337],[128.8621869,71.638378],[128.863094,71.638092],[128.8647419,71.637636]]}},{"type":"Feature","id":"osm-road-479835676","properties":{"roadId":"osm-road-479835676","osmId":479835676,"highway":"service","name":null,"surface":null,"lanes":null,"maxspeed":null,"source":"OpenStreetMap"},"geometry":{"type":"LineString","coordinates":[[128.8677835,71.6368548],[128.8687702,71.636884],[128.8696929,71.6368503],[128.870455,71.6367027]]}},{"type":"Feature","id":"osm-road-479835789","properties":{"roadId":"osm-road-479835789","osmId":479835789,"highway":"residential","name":"улица Академика Фёдорова","surface":null,"lanes":null,"maxspeed":null,"source":"OpenStreetMap"},"geometry":{"type":"LineString","coordinates":[[128.870455,71.6367027],[128.8709155,71.6365243],[128.8708842,71.6363681],[128.8701975,71.6361349],[128.869628,71.63597],[128.8645971,71.6341202],[128.8636315,71.6338531]]}},{"type":"Feature","id":"osm-road-481120011","properties":{"roadId":"osm-road-481120011","osmId":481120011,"highway":"tertiary","name":null,"surface":null,"lanes":null,"maxspeed":null,"source":"OpenStreetMap"},"geometry":{"type":"LineString","coordinates":[[128.8020694,71.6313852],[128.8028473,71.6315711],[128.8039684,71.6317469],[128.8045585,71.6317943],[128.8055349,71.6318501],[128.8061035,71.631845],[128.8070208,71.631801],[128.8078093,71.6317317],[128.8090968,71.6315001],[128.8096011,71.6314562],[128.8101375,71.6314494],[128.8107169,71.6315272],[128.8113606,71.6315847],[128.8127768,71.6317233],[128.8159847,71.6320817],[128.8191819,71.6323589],[128.820523,71.6324062],[128.8214028,71.6323825],[128.8223147,71.6323014],[128.8247609,71.6316793],[128.8259518,71.631446],[128.8267136,71.6313108],[128.8279688,71.6311857],[128.829503,71.6309795],[128.8307369,71.6308307],[128.8317239,71.6307732],[128.834331,71.63078],[128.8357043,71.6307394]]}},{"type":"Feature","id":"osm-road-481120012","properties":{"roadId":"osm-road-481120012","osmId":481120012,"highway":"unclassified","name":null,"surface":"unpaved","lanes":null,"maxspeed":null,"source":"OpenStreetMap"},"geometry":{"type":"LineString","coordinates":[[128.8357043,71.6307394],[128.8336873,71.6303506],[128.830415,71.6295661],[128.8283229,71.6289271],[128.8268101,71.6285855],[128.8247287,71.6279295],[128.8232589,71.6273885],[128.8191819,71.625684],[128.8177764,71.6251361],[128.8173151,71.6247776],[128.8159525,71.6239388],[128.8146222,71.6229951],[128.8140764,71.6224398],[128.8137746,71.6219838],[128.8132381,71.6212835],[128.8122296,71.6203905],[128.8101697,71.6187666],[128.8064575,71.6157756],[128.803314,71.6133019],[128.8021016,71.6123814],[128.8013828,71.6118196],[128.8011253,71.6115488],[128.801018,71.6111562],[128.8010931,71.6100935],[128.8009858,71.6096433],[128.8007927,71.6075716],[128.8005674,71.6042437],[128.8005245,71.6037629],[128.8005245,71.6030282],[128.8004064,71.6027539],[128.8003099,71.602097],[128.8002241,71.6006849],[128.8000202,71.6001295],[128.7997627,71.5998247],[128.7991512,71.599459],[128.7974453,71.5987004],[128.7946987,71.5975488],[128.7921131,71.5964277],[128.7917268,71.5962346],[128.7916195,71.5960483],[128.7916517,71.5958078],[128.7916195,71.5955707],[128.7913191,71.5950084],[128.7911045,71.5943174],[128.7908041,71.593772],[128.7902355,71.5929386]]}},{"type":"Feature","id":"osm-road-629192407","properties":{"roadId":"osm-road-629192407","osmId":629192407,"highway":"unclassified","name":null,"surface":null,"lanes":null,"maxspeed":null,"source":"OpenStreetMap"},"geometry":{"type":"LineString","coordinates":[[129.1183878,72.004037],[129.1195464,72.0043951],[129.1200813,72.0045283],[129.1208768,72.0047265],[129.1212947,72.0049589],[129.1214132,72.0050248],[129.1212415,72.005575],[129.1202545,72.0064103],[129.1169929,72.0077359],[129.1137313,72.0086506],[129.1071223,72.0093663],[129.0996551,72.0101086],[129.0914153,72.0105858],[129.0878104,72.0107448],[129.0838622,72.0106918],[129.0799998,72.0090217],[129.0730476,72.0042758],[129.0666103,71.9999265],[129.0567397,71.992127],[129.0455817,71.9825456],[129.0273856,71.9702764],[129.0021514,71.9544101],[128.9770888,71.9388762],[128.9742564,71.9372795],[128.9716815,71.9344584],[128.9696216,71.9328347],[128.9544295,71.9219178],[128.9407825,71.9112876],[128.9301395,71.903611],[128.9215564,71.8972381],[128.9096258,71.8879015],[128.9085959,71.8864605],[128.9067076,71.870336],[128.9056776,71.8495458],[128.9067076,71.8417368],[128.9077376,71.8364934],[128.9116858,71.8127726],[128.9158056,71.7859638],[128.9216421,71.7598691],[128.9260196,71.7430978],[128.928852,71.7416727],[128.9409541,71.7364551],[128.9523696,71.7322854],[128.9665317,71.7257196],[128.971939,71.7228127],[128.973484,71.7211168],[128.9712524,71.71794],[128.9715098,71.7169168],[128.9721107,71.7158397],[128.9716815,71.7147895],[128.9660167,71.7109383],[128.9618968,71.7085948],[128.9594936,71.7061164],[128.9592138,71.7044477],[128.9588069,71.7020208],[128.9596652,71.698706],[128.9604377,71.696388],[128.9606094,71.6934766],[128.9605933,71.6907719],[128.9525896,71.6846816],[128.943277,71.6776288],[128.9380842,71.6715002],[128.921728,71.6573435],[128.9027595,71.6405083],[128.8995033,71.6372478],[128.896628,71.6346518],[128.8936078,71.634083]]}},{"type":"Feature","id":"osm-road-678364451","properties":{"roadId":"osm-road-678364451","osmId":678364451,"highway":"service","name":null,"surface":null,"lanes":null,"maxspeed":null,"source":"OpenStreetMap"},"geometry":{"type":"LineString","coordinates":[[128.8557689,71.6905503],[128.8540935,71.6905108]]}},{"type":"Feature","id":"osm-road-678364452","properties":{"roadId":"osm-road-678364452","osmId":678364452,"highway":"service","name":null,"surface":null,"lanes":null,"maxspeed":null,"source":"OpenStreetMap"},"geometry":{"type":"LineString","coordinates":[[128.8556967,71.6908173],[128.8539433,71.6907872],[128.8539004,71.6910197],[128.8557023,71.6910523]]}},{"type":"Feature","id":"osm-road-678364453","properties":{"roadId":"osm-road-678364453","osmId":678364453,"highway":"service","name":null,"surface":null,"lanes":null,"maxspeed":null,"source":"OpenStreetMap"},"geometry":{"type":"LineString","coordinates":[[128.8557023,71.6910523],[128.8578808,71.6911074]]}},{"type":"Feature","id":"osm-road-678364454","properties":{"roadId":"osm-road-678364454","osmId":678364454,"highway":"service","name":null,"surface":null,"lanes":null,"maxspeed":null,"source":"OpenStreetMap"},"geometry":{"type":"LineString","coordinates":[[128.8554454,71.691377],[128.8574195,71.6914343]]}},{"type":"Feature","id":"osm-road-678364455","properties":{"roadId":"osm-road-678364455","osmId":678364455,"highway":"service","name":null,"surface":null,"lanes":null,"maxspeed":null,"source":"OpenStreetMap"},"geometry":{"type":"LineString","coordinates":[[128.855719,71.6902459],[128.8557689,71.6905503],[128.8556967,71.6908173],[128.8557023,71.6910523],[128.8554454,71.691377],[128.8551235,71.6918252],[128.854984,71.6920959]]}},{"type":"Feature","id":"osm-road-678364456","properties":{"roadId":"osm-road-678364456","osmId":678364456,"highway":"service","name":null,"surface":null,"lanes":null,"maxspeed":null,"source":"OpenStreetMap"},"geometry":{"type":"LineString","coordinates":[[128.862375,71.6938238],[128.8619363,71.6957814],[128.862344,71.6966339]]}},{"type":"Feature","id":"osm-road-729390744","properties":{"roadId":"osm-road-729390744","osmId":729390744,"highway":"residential","name":"Ленинская улица","surface":null,"lanes":null,"maxspeed":null,"source":"OpenStreetMap"},"geometry":{"type":"LineString","coordinates":[[128.8597155,71.6351816],[128.8568187,71.6341979],[128.8566041,71.6341033],[128.8561857,71.6340492],[128.8557458,71.63387],[128.8553381,71.63363],[128.8543939,71.6332142],[128.8533425,71.632866],[128.851304,71.632298],[128.850832,71.6322101],[128.8503921,71.6321594],[128.8495874,71.6321459],[128.8471413,71.6322034],[128.845253,71.6322642]]}},{"type":"Feature","id":"osm-road-738356780","properties":{"roadId":"osm-road-738356780","osmId":738356780,"highway":"residential","name":"Больничная улица","surface":null,"lanes":null,"maxspeed":null,"source":"OpenStreetMap"},"geometry":{"type":"LineString","coordinates":[[128.846852,71.6386499],[128.8469948,71.6387075]]}},{"type":"Feature","id":"osm-road-738356781","properties":{"roadId":"osm-road-738356781","osmId":738356781,"highway":"tertiary","name":null,"surface":null,"lanes":null,"maxspeed":null,"source":"OpenStreetMap"},"geometry":{"type":"LineString","coordinates":[[128.8466371,71.6389173],[128.8468315,71.6388527],[128.846916,71.6387796],[128.846852,71.6386499]]}},{"type":"Feature","id":"osm-road-738356782","properties":{"roadId":"osm-road-738356782","osmId":738356782,"highway":"tertiary","name":null,"surface":null,"lanes":null,"maxspeed":null,"source":"OpenStreetMap"},"geometry":{"type":"LineString","coordinates":[[128.8479858,71.6390754],[128.847494,71.6389727],[128.8472794,71.6389406],[128.8469857,71.6389237],[128.8466371,71.6389173]]}},{"type":"Feature","id":"osm-road-775228434","properties":{"roadId":"osm-road-775228434","osmId":775228434,"highway":"service","name":null,"surface":null,"lanes":null,"maxspeed":null,"source":"OpenStreetMap"},"geometry":{"type":"LineString","coordinates":[[128.8323784,71.6906996],[128.8313663,71.6907293],[128.8286792,71.6908795],[128.8223296,71.690459],[128.8269005,71.6914773],[128.8289757,71.6915494],[128.829492,71.6914443],[128.8313663,71.6907293]]}},{"type":"Feature","id":"osm-road-775228435","properties":{"roadId":"osm-road-775228435","osmId":775228435,"highway":"service","name":null,"surface":null,"lanes":null,"maxspeed":null,"source":"OpenStreetMap"},"geometry":{"type":"LineString","coordinates":[[128.829492,71.6914443],[128.829245,71.6916395],[128.8289773,71.6922433]]}},{"type":"Feature","id":"osm-road-775228436","properties":{"roadId":"osm-road-775228436","osmId":775228436,"highway":"service","name":null,"surface":null,"lanes":null,"maxspeed":null,"source":"OpenStreetMap"},"geometry":{"type":"LineString","coordinates":[[128.8223296,71.690459],[128.8188982,71.6897049]]}},{"type":"Feature","id":"osm-road-860550227","properties":{"roadId":"osm-road-860550227","osmId":860550227,"highway":"service","name":null,"surface":null,"lanes":null,"maxspeed":null,"source":"OpenStreetMap"},"geometry":{"type":"LineString","coordinates":[[128.8878868,71.7035324],[128.8884459,71.7035222]]}},{"type":"Feature","id":"osm-road-860550230","properties":{"roadId":"osm-road-860550230","osmId":860550230,"highway":"service","name":null,"surface":null,"lanes":null,"maxspeed":null,"source":"OpenStreetMap"},"geometry":{"type":"LineString","coordinates":[[128.8892701,71.7068583],[128.8891684,71.7064233],[128.8889741,71.7061798]]}},{"type":"Feature","id":"osm-road-860582367","properties":{"roadId":"osm-road-860582367","osmId":860582367,"highway":"service","name":null,"surface":null,"lanes":null,"maxspeed":null,"source":"OpenStreetMap"},"geometry":{"type":"LineString","coordinates":[[128.8885358,71.6943823],[128.8888657,71.6947654]]}},{"type":"Feature","id":"osm-road-860582368","properties":{"roadId":"osm-road-860582368","osmId":860582368,"highway":"service","name":null,"surface":null,"lanes":null,"maxspeed":null,"source":"OpenStreetMap"},"geometry":{"type":"LineString","coordinates":[[128.8858631,71.6986428],[128.8866633,71.6987701],[128.8871705,71.6988188],[128.8877231,71.6988289],[128.8883567,71.6988205],[128.8893812,71.6987352]]}},{"type":"Feature","id":"osm-road-860582369","properties":{"roadId":"osm-road-860582369","osmId":860582369,"highway":"service","name":null,"surface":null,"lanes":null,"maxspeed":null,"source":"OpenStreetMap"},"geometry":{"type":"LineString","coordinates":[[128.8797391,71.6874205],[128.8801439,71.6874255],[128.8813514,71.6873341],[128.8828498,71.6872884],[128.8856285,71.687197],[128.8869273,71.6871609]]}},{"type":"Feature","id":"osm-road-860582370","properties":{"roadId":"osm-road-860582370","osmId":860582370,"highway":"service","name":null,"surface":null,"lanes":null,"maxspeed":null,"source":"OpenStreetMap"},"geometry":{"type":"LineString","coordinates":[[128.8879055,71.6936678],[128.8881388,71.6936383]]}},{"type":"Feature","id":"osm-road-869889019","properties":{"roadId":"osm-road-869889019","osmId":869889019,"highway":"service","name":null,"surface":null,"lanes":null,"maxspeed":null,"source":"OpenStreetMap"},"geometry":{"type":"LineString","coordinates":[[128.8451671,71.6375916],[128.8459362,71.63731],[128.846915,71.6370434],[128.8475168,71.636821],[128.8481605,71.63651],[128.8484824,71.6363241],[128.8487506,71.6361281],[128.8481069,71.6359996],[128.8479888,71.6357833],[128.8482034,71.6355095],[128.8484931,71.6352492],[128.8485145,71.635043],[128.8480317,71.6347828],[128.8479137,71.6345968],[128.8480203,71.6344863],[128.8483965,71.6343703],[128.8490081,71.6342825],[128.8509554,71.6348352]]}},{"type":"Feature","id":"osm-road-1155764295","properties":{"roadId":"osm-road-1155764295","osmId":1155764295,"highway":"service","name":null,"surface":null,"lanes":null,"maxspeed":null,"source":"OpenStreetMap"},"geometry":{"type":"LineString","coordinates":[[128.8587284,71.6901232],[128.8583422,71.6902007],[128.8582683,71.6903632]]}},{"type":"Feature","id":"osm-road-1155764296","properties":{"roadId":"osm-road-1155764296","osmId":1155764296,"highway":"service","name":null,"surface":null,"lanes":null,"maxspeed":null,"source":"OpenStreetMap"},"geometry":{"type":"LineString","coordinates":[[128.8847887,71.6896951],[128.8844776,71.6899985],[128.8840775,71.6900546]]}},{"type":"Feature","id":"osm-road-1155764297","properties":{"roadId":"osm-road-1155764297","osmId":1155764297,"highway":"service","name":null,"surface":null,"lanes":null,"maxspeed":null,"source":"OpenStreetMap"},"geometry":{"type":"LineString","coordinates":[[128.8827717,71.6886435],[128.8816598,71.6885417]]}},{"type":"Feature","id":"osm-road-1155764298","properties":{"roadId":"osm-road-1155764298","osmId":1155764298,"highway":"service","name":null,"surface":null,"lanes":null,"maxspeed":null,"source":"OpenStreetMap"},"geometry":{"type":"LineString","coordinates":[[128.8685721,71.6948548],[128.8693218,71.6948343]]}},{"type":"Feature","id":"osm-road-1155764299","properties":{"roadId":"osm-road-1155764299","osmId":1155764299,"highway":"service","name":null,"surface":null,"lanes":null,"maxspeed":null,"source":"OpenStreetMap"},"geometry":{"type":"LineString","coordinates":[[128.866657,71.6942314],[128.8666145,71.6939498]]}},{"type":"Feature","id":"osm-road-1155764300","properties":{"roadId":"osm-road-1155764300","osmId":1155764300,"highway":"service","name":null,"surface":null,"lanes":null,"maxspeed":null,"source":"OpenStreetMap"},"geometry":{"type":"LineString","coordinates":[[128.8638997,71.6941371],[128.864179,71.6938797]]}},{"type":"Feature","id":"osm-road-1155764301","properties":{"roadId":"osm-road-1155764301","osmId":1155764301,"highway":"service","name":null,"surface":null,"lanes":null,"maxspeed":null,"source":"OpenStreetMap"},"geometry":{"type":"LineString","coordinates":[[128.8573766,71.6940225],[128.8562248,71.6939449]]}},{"type":"Feature","id":"osm-road-1155764302","properties":{"roadId":"osm-road-1155764302","osmId":1155764302,"highway":"service","name":null,"surface":null,"lanes":null,"maxspeed":null,"source":"OpenStreetMap"},"geometry":{"type":"LineString","coordinates":[[128.8563466,71.6934563],[128.8563128,71.6936018]]}},{"type":"Feature","id":"osm-road-1155764303","properties":{"roadId":"osm-road-1155764303","osmId":1155764303,"highway":"service","name":null,"surface":null,"lanes":null,"maxspeed":null,"source":"OpenStreetMap"},"geometry":{"type":"LineString","coordinates":[[128.8554776,71.6935945],[128.8563128,71.6936018]]}},{"type":"Feature","id":"osm-road-1155764304","properties":{"roadId":"osm-road-1155764304","osmId":1155764304,"highway":"service","name":null,"surface":null,"lanes":null,"maxspeed":null,"source":"OpenStreetMap"},"geometry":{"type":"LineString","coordinates":[[128.8757765,71.6892586],[128.8752723,71.6892418],[128.8748266,71.6891492]]}},{"type":"Feature","id":"osm-road-1155764305","properties":{"roadId":"osm-road-1155764305","osmId":1155764305,"highway":"service","name":null,"surface":null,"lanes":null,"maxspeed":null,"source":"OpenStreetMap"},"geometry":{"type":"LineString","coordinates":[[128.8711041,71.6898974],[128.8720805,71.6900505]]}},{"type":"Feature","id":"osm-road-1155764306","properties":{"roadId":"osm-road-1155764306","osmId":1155764306,"highway":"service","name":null,"surface":null,"lanes":null,"maxspeed":null,"source":"OpenStreetMap"},"geometry":{"type":"LineString","coordinates":[[128.8614696,71.6903001],[128.8613668,71.6904996]]}},{"type":"Feature","id":"osm-road-1155764307","properties":{"roadId":"osm-road-1155764307","osmId":1155764307,"highway":"service","name":null,"surface":null,"lanes":null,"maxspeed":null,"source":"OpenStreetMap"},"geometry":{"type":"LineString","coordinates":[[128.8602841,71.6933064],[128.8601218,71.6937413]]}},{"type":"Feature","id":"osm-road-1155764308","properties":{"roadId":"osm-road-1155764308","osmId":1155764308,"highway":"service","name":null,"surface":null,"lanes":null,"maxspeed":null,"source":"OpenStreetMap"},"geometry":{"type":"LineString","coordinates":[[128.8682985,71.6936703],[128.8696635,71.6936854]]}},{"type":"Feature","id":"osm-road-1155764309","properties":{"roadId":"osm-road-1155764309","osmId":1155764309,"highway":"service","name":null,"surface":null,"lanes":null,"maxspeed":null,"source":"OpenStreetMap"},"geometry":{"type":"LineString","coordinates":[[128.8687491,71.6925599],[128.8695323,71.6925414],[128.8700105,71.6925005]]}},{"type":"Feature","id":"osm-road-1155764310","properties":{"roadId":"osm-road-1155764310","osmId":1155764310,"highway":"service","name":null,"surface":null,"lanes":null,"maxspeed":null,"source":"OpenStreetMap"},"geometry":{"type":"LineString","coordinates":[[128.866657,71.6911613],[128.8667401,71.6906301]]}},{"type":"Feature","id":"osm-road-1155764311","properties":{"roadId":"osm-road-1155764311","osmId":1155764311,"highway":"service","name":null,"surface":null,"lanes":null,"maxspeed":null,"source":"OpenStreetMap"},"geometry":{"type":"LineString","coordinates":[[128.8703459,71.6913077],[128.867943,71.6911754],[128.8677771,71.6914074],[128.8696334,71.6914956]]}},{"type":"Feature","id":"osm-road-1222892261","properties":{"roadId":"osm-road-1222892261","osmId":1222892261,"highway":"residential","name":"Ленинская улица","surface":null,"lanes":null,"maxspeed":null,"source":"OpenStreetMap"},"geometry":{"type":"LineString","coordinates":[[128.8597155,71.6351816],[128.860257,71.6354032],[128.8633147,71.6364899],[128.8635502,71.6367593],[128.8636042,71.6368305]]}},{"type":"Feature","id":"osm-road-1222892262","properties":{"roadId":"osm-road-1222892262","osmId":1222892262,"highway":"residential","name":"Ленинская улица","surface":null,"lanes":null,"maxspeed":null,"source":"OpenStreetMap"},"geometry":{"type":"LineString","coordinates":[[128.8636042,71.6368305],[128.8636951,71.6369501],[128.8636955,71.6372384],[128.8642368,71.637469],[128.8647419,71.637636]]}},{"type":"Feature","id":"osm-road-1222892263","properties":{"roadId":"osm-road-1222892263","osmId":1222892263,"highway":"residential","name":"Первомайская улица","surface":null,"lanes":null,"maxspeed":null,"source":"OpenStreetMap"},"geometry":{"type":"LineString","coordinates":[[128.8647419,71.637636],[128.8677835,71.6368548]]}},{"type":"Feature","id":"osm-road-1222892264","properties":{"roadId":"osm-road-1222892264","osmId":1222892264,"highway":"residential","name":"Больничная улица","surface":null,"lanes":null,"maxspeed":null,"source":"OpenStreetMap"},"geometry":{"type":"LineString","coordinates":[[128.8469948,71.6387075],[128.8479858,71.6390754]]}},{"type":"Feature","id":"osm-road-1222892265","properties":{"roadId":"osm-road-1222892265","osmId":1222892265,"highway":"tertiary","name":null,"surface":null,"lanes":null,"maxspeed":null,"source":"OpenStreetMap"},"geometry":{"type":"LineString","coordinates":[[128.8789614,71.6869721],[128.8797391,71.6874205],[128.8816598,71.6885417],[128.8818169,71.6886334],[128.8840775,71.6900546],[128.8844696,71.6903011],[128.8851669,71.6908067],[128.8867548,71.6924648]]}},{"type":"Feature","id":"osm-road-1222892266","properties":{"roadId":"osm-road-1222892266","osmId":1222892266,"highway":"residential","name":null,"surface":null,"lanes":null,"maxspeed":null,"source":"OpenStreetMap"},"geometry":{"type":"LineString","coordinates":[[128.8705285,71.6907406],[128.8703459,71.6913077],[128.8700105,71.6925005],[128.8697775,71.6933289]]}},{"type":"Feature","id":"osm-road-1222892267","properties":{"roadId":"osm-road-1222892267","osmId":1222892267,"highway":"tertiary","name":null,"surface":null,"lanes":null,"maxspeed":null,"source":"OpenStreetMap"},"geometry":{"type":"LineString","coordinates":[[128.8858631,71.6986428],[128.8863042,71.6994767],[128.887198,71.7019374]]}},{"type":"Feature","id":"osm-road-1326195630","properties":{"roadId":"osm-road-1326195630","osmId":1326195630,"highway":"residential","name":"улица Трусова","surface":null,"lanes":null,"maxspeed":null,"source":"OpenStreetMap"},"geometry":{"type":"LineString","coordinates":[[128.871265,71.6381679],[128.8700902,71.6377116],[128.8694787,71.6374564],[128.8677835,71.6368548],[128.8670325,71.6365878],[128.8645649,71.6357259],[128.8622475,71.6348774],[128.8612389,71.634563],[128.8584709,71.6335387]]}},{"type":"Feature","id":"osm-road-1326200871","properties":{"roadId":"osm-road-1326200871","osmId":1326200871,"highway":"service","name":null,"surface":"unpaved","lanes":null,"maxspeed":null,"source":"OpenStreetMap"},"geometry":{"type":"LineString","coordinates":[[128.7902355,71.5929386],[128.7898659,71.5925865],[128.7877203,71.5914603],[128.7850728,71.5904329]]}},{"type":"Feature","id":"osm-road-1326200872","properties":{"roadId":"osm-road-1326200872","osmId":1326200872,"highway":"service","name":null,"surface":null,"lanes":null,"maxspeed":null,"source":"OpenStreetMap"},"geometry":{"type":"LineString","coordinates":[[128.8664075,71.6222345],[128.8654063,71.6216766],[128.8630765,71.620928],[128.8609969,71.6204908],[128.8596175,71.619971],[128.8585997,71.6197612],[128.8578746,71.6195706],[128.8571727,71.6193384],[128.8565446,71.6190177],[128.855425,71.6183886]]}},{"type":"Feature","id":"osm-road-1326200873","properties":{"roadId":"osm-road-1326200873","osmId":1326200873,"highway":"unclassified","name":null,"surface":null,"lanes":null,"maxspeed":null,"source":"OpenStreetMap"},"geometry":{"type":"LineString","coordinates":[[128.9060211,71.5964074],[128.9055061,71.5964277],[128.9051092,71.596404],[128.904444,71.5963599],[128.9041972,71.5963633],[128.9038002,71.5964277],[128.9033282,71.5965327],[128.9030599,71.5966919],[128.9026737,71.5969696],[128.9023948,71.5971153],[128.901853,71.5972],[128.9008284,71.5972406],[128.8995355,71.5972626],[128.8985914,71.5972321],[128.8978565,71.5971796],[128.8974863,71.5971339],[128.8967085,71.5969781],[128.8957912,71.5968375],[128.8951904,71.5967766],[128.8942569,71.5967715],[128.8938332,71.5968037],[128.8934201,71.5968985],[128.8921058,71.597266],[128.8916016,71.5974591],[128.8911188,71.5977774],[128.8908237,71.5979671],[128.8907003,71.5981602],[128.8906199,71.5983092],[128.8905287,71.5986191],[128.890357,71.5988494],[128.890121,71.5992964],[128.8898206,71.5998044],[128.889488,71.6000855],[128.8890052,71.6004072],[128.8882649,71.6009016],[128.886677,71.6022053],[128.8851428,71.603299],[128.8840699,71.6041929],[128.8828468,71.6051375],[128.8818812,71.6058519],[128.8816237,71.6060279],[128.8806152,71.6065357],[128.8791132,71.6070943],[128.8773644,71.6077714],[128.8742101,71.6090103],[128.8728583,71.6093454],[128.8719356,71.609711],[128.8709593,71.6101984],[128.8695645,71.610899],[128.8691676,71.6111359],[128.8689315,71.6113864],[128.8687384,71.6118873],[128.868438,71.6127029],[128.868556,71.6131023],[128.8685131,71.6133493],[128.8680732,71.6137825],[128.8670432,71.614598],[128.8658309,71.6153425],[128.8652623,71.6156572],[128.8648975,71.6159651],[128.8643932,71.6164726],[128.8629985,71.617667],[128.8622796,71.6183031],[128.8617325,71.6185467],[128.8612497,71.6187159],[128.8606167,71.6188444],[128.8598978,71.6189391],[128.859061,71.6189933],[128.8583314,71.6189865],[128.8575697,71.6188613],[128.855425,71.6183886]]}}]}
